{"type": "FeatureCollection", "features": [{"id": "35001", "type": "Feature", "properties": {}, "geometry": {"type": "MultiPolygon", "coordinates": [[[[-15.7108, 28.0831], [-15.7073, 28.0944], [-15.7088, 28.0999], [-15.7135, 28.1007], [-15.7068, 28.1173], [-15.6886, 28.114], [-15.6648, 28.0845], [-15.6577, 28.0838], [-15.6603, 28.0732], [-15.6525, 28.0691], [-15.6513, 28.058], [-15.662, 28.0496], [-15.671, 28.048], [-15.6802, 28.056], [-15.6893, 28.0476], [-15.6955, 28.0523], [-15.725, 28.0296], [-15.744, 28.0318], [-15.746, 28.0509], [-15.7108, 28.0831]]], [[[-15.7093, 28.0977], [-15.7091, 28.0982], [-15.709, 28.0981], [-15.7093, 28.0977]]], [[[-15.7098, 28.098], [-15.7093, 28.0983], [-15.7093, 28.0981], [-15.7098, 28.098]]]]}}, {"id": "35002", "type": "Feature", "properties": {}, "geometry": {"type": "MultiPolygon", "coordinates": [[[[-15.3813, 27.8618], [-15.3812, 27.8611], [-15.3822, 27.8614], [-15.3813, 27.8618]]], [[[-15.5124, 27.9346], [-15.4698, 27.934], [-15.4454, 27.9084], [-15.42, 27.912], [-15.3868, 27.9025], [-15.394, 27.8899], [-15.3901, 27.8798], [-15.3808, 27.8759], [-15.3865, 27.8703], [-15.3854, 27.8575], [-15.3984, 27.8562], [-15.4032, 27.8493], [-15.3965, 27.8454], [-15.3994, 27.842], [-15.426, 27.8613], [-15.5086, 27.8784], [-15.5176, 27.8974], [-15.5187, 27.9323], [-15.5454, 27.9537], [-15.5124, 27.9346]]]]}}, {"id": "35003", "type": "Feature", "properties": {}, "geometry": {"type": "Polygon", "coordinates": [[[-14.0451, 28.4059], [-14.0474, 28.4383], [-14.0259, 28.4485], [-13.9453, 28.4543], [-13.9001, 28.4328], [-13.8501, 28.4213], [-13.8532, 28.3922], [-13.86, 28.393], [-13.8695, 28.3636], [-13.8782, 28.355], [-13.8791, 28.338], [-13.8861, 28.3253], [-13.8947, 28.3247], [-13.8939, 28.3143], [-13.9031, 28.3029], [-13.8968, 28.2882], [-13.9007, 28.2759], [-13.9102, 28.2735], [-13.9219, 28.2504], [-13.9804, 28.3349], [-14.0596, 28.3779], [-14.0451, 28.4059]]]}}, {"id": "35004", "type": "Feature", "properties": {}, "geometry": {"type": "MultiPolygon", "coordinates": [[[[-13.552, 28.9547], [-13.5542, 28.9539], [-13.5551, 28.955], [-13.552, 28.9547]]], [[[-13.5475, 28.9581], [-13.5437, 28.954], [-13.5445, 28.9527], [-13.5494, 28.9529], [-13.5475, 28.9581]]], [[[-13.5566, 29.007], [-13.5484, 28.9838], [-13.5154, 28.9787], [-13.5251, 28.9756], [-13.5281, 28.9642], [-13.5267, 28.9718], [-13.5364, 28.9697], [-13.5425, 28.9624], [-13.5408, 28.9598], [-13.5372, 28.9658], [-13.5325, 28.9673], [-13.5431, 28.9569], [-13.5453, 28.96], [-13.5836, 28.9518], [-13.5893, 29.0039], [-13.5566, 29.007]]]]}}, {"id": "35005", "type": "Feature", "properties": {}, "geometry": {"type": "Polygon", "coordinates": [[[-15.7655, 28.0462], [-15.7464, 28.051], [-15.744, 28.0318], [-15.725, 28.0296], [-15.6963, 28.052], [-15.6893, 28.0476], [-15.6802, 28.056], [-15.6133, 28.0171], [-15.623, 28.0174], [-15.6453, 28.0018], [-15.6699, 28.0045], [-15.6923, 27.9876], [-15.7085, 27.9931], [-15.7264, 27.9802], [-15.75, 27.9883], [-15.7492, 28.0155], [-15.7729, 28.0318], [-15.7655, 28.0462]]]}}, {"id": "35006", "type": "Feature", "properties": {}, "geometry": {"type": "MultiPolygon", "coordinates": [[[[-15.5631, 28.134], [-15.5646, 28.1363], [-15.5594, 28.1471], [-15.5441, 28.1469], [-15.5294, 28.1552], [-15.5151, 28.146], [-15.4956, 28.1451], [-15.4848, 28.135], [-15.4975, 28.1219], [-15.4994, 28.1048], [-15.5297, 28.0829], [-15.5494, 28.0849], [-15.5517, 28.0904], [-15.5442, 28.1045], [-15.5488, 28.1103], [-15.5412, 28.127], [-15.5445, 28.1426], [-15.558, 28.1416], [-15.5631, 28.134]]], [[[-15.4965, 28.1455], [-15.4964, 28.1454], [-15.4965, 28.1453], [-15.4965, 28.1455]]], [[[-15.497, 28.1467], [-15.497, 28.1469], [-15.4966, 28.1468], [-15.497, 28.1467]]], [[[-15.4963, 28.147], [-15.4962, 28.1471], [-15.496, 28.1467], [-15.4963, 28.147]]]]}}, {"id": "35007", "type": "Feature", "properties": {}, "geometry": {"type": "MultiPolygon", "coordinates": [[[[-14.1587, 28.4077], [-14.1586, 28.4077], [-14.1586, 28.4075], [-14.1587, 28.4077]]], [[[-14.1591, 28.4085], [-14.1589, 28.4086], [-14.1588, 28.4084], [-14.1591, 28.4085]]], [[[-14.1588, 28.4113], [-14.1584, 28.4113], [-14.1587, 28.411], [-14.1588, 28.4113]]], [[[-14.158, 28.4111], [-14.1582, 28.4109], [-14.1582, 28.4112], [-14.158, 28.4111]]], [[[-14.1582, 28.4122], [-14.1581, 28.4122], [-14.1584, 28.4116], [-14.1582, 28.4122]]], [[[-14.1577, 28.4121], [-14.1468, 28.4388], [-14.1036, 28.4723], [-14.0912, 28.4944], [-14.0438, 28.4895], [-14.0434, 28.4717], [-14.0171, 28.45], [-14.0474, 28.4383], [-14.0451, 28.4057], [-14.0627, 28.3756], [-14.0824, 28.3804], [-14.0897, 28.3754], [-14.1037, 28.388], [-14.1227, 28.3881], [-14.1348, 28.4042], [-14.1549, 28.4053], [-14.1577, 28.4121]]]]}}, {"id": "35008", "type": "Feature", "properties": {}, "geometry": {"type": "Polygon", "coordinates": [[[-15.5716, 28.1095], [-15.5604, 28.1258], [-15.5637, 28.138], [-15.5462, 28.1438], [-15.5409, 28.1299], [-15.5485, 28.1121], [-15.5442, 28.1045], [-15.55, 28.0833], [-15.5771, 28.0779], [-15.5716, 28.1095]]]}}, {"id": "35009", "type": "Feature", "properties": {}, "geometry": {"type": "MultiPolygon", "coordinates": [[[[-15.7092, 28.121], [-15.6991, 28.1354], [-15.7048, 28.1425], [-15.6962, 28.1517], [-15.7093, 28.1656], [-15.6987, 28.1631], [-15.6832, 28.1706], [-15.6813, 28.1623], [-15.6663, 28.1581], [-15.6496, 28.1655], [-15.6348, 28.1389], [-15.6438, 28.1354], [-15.6385, 28.1145], [-15.6315, 28.1119], [-15.6369, 28.1038], [-15.6377, 28.0669], [-15.618, 28.0381], [-15.616, 28.0213], [-15.6691, 28.0491], [-15.6513, 28.058], [-15.6525, 28.0692], [-15.6603, 28.0732], [-15.6577, 28.0838], [-15.6648, 28.0845], [-15.6886, 28.114], [-15.7092, 28.121]]], [[[-15.6691, 28.1594], [-15.6688, 28.1594], [-15.6688, 28.1593], [-15.6691, 28.1594]]]]}}, {"id": "35010", "type": "Feature", "properties": {}, "geometry": {"type": "MultiPolygon", "coordinates": [[[[-13.5247, 29.1446], [-13.5247, 29.1447], [-13.5245, 29.1447], [-13.5247, 29.1446]]], [[[-13.5245, 29.1465], [-13.5242, 29.1466], [-13.5242, 29.1465], [-13.5245, 29.1465]]], [[[-13.5233, 29.1553], [-13.5234, 29.1557], [-13.5223, 29.1556], [-13.5233, 29.1553]]], [[[-13.5237, 29.158], [-13.5238, 29.1584], [-13.5229, 29.1581], [-13.5237, 29.158]]], [[[-13.5247, 29.1413], [-13.521, 29.156], [-13.5221, 29.1687], [-13.5102, 29.1951], [-13.4978, 29.2069], [-13.497, 29.2183], [-13.4775, 29.2285], [-13.4702, 29.241], [-13.4659, 29.2266], [-13.4545, 29.2263], [-13.4235, 29.2083], [-13.4202, 29.1842], [-13.4276, 29.1686], [-13.4283, 29.1555], [-13.4469, 29.1464], [-13.4647, 29.126], [-13.4637, 29.1155], [-13.4487, 29.1007], [-13.4515, 29.0807], [-13.5282, 29.1193], [-13.5299, 29.1357], [-13.5247, 29.1413]]], [[[-13.4412, 29.2215], [-13.4407, 29.2226], [-13.4395, 29.2214], [-13.4412, 29.2215]]]]}}, {"id": "35011", "type": "Feature", "properties": {}, "geometry": {"type": "Polygon", "coordinates": [[[-15.4656, 27.9516], [-15.4378, 27.9469], [-15.4278, 27.9381], [-15.4029, 27.9412], [-15.3799, 27.9314], [-15.3868, 27.9025], [-15.42, 27.912], [-15.4361, 27.9069], [-15.4503, 27.9112], [-15.4698, 27.934], [-15.5124, 27.9346], [-15.5454, 27.9537], [-15.4656, 27.9516]]]}}, {"id": "35012", "type": "Feature", "properties": {}, "geometry": {"type": "MultiPolygon", "coordinates": [[[[-15.6974, 27.771], [-15.6975, 27.7718], [-15.6957, 27.7717], [-15.6974, 27.771]]], [[[-15.7815, 27.8682], [-15.7525, 27.9027], [-15.7528, 27.9193], [-15.726, 27.9479], [-15.6881, 27.9479], [-15.6823, 27.941], [-15.6878, 27.9267], [-15.6842, 27.9098], [-15.6778, 27.9087], [-15.6724, 27.9178], [-15.6633, 27.9121], [-15.6706, 27.8994], [-15.6714, 27.8718], [-15.6627, 27.8617], [-15.6589, 27.8359], [-15.6724, 27.7938], [-15.6666, 27.7783], [-15.671, 27.7615], [-15.6764, 27.757], [-15.6856, 27.7562], [-15.6822, 27.7595], [-15.69, 27.7713], [-15.6954, 27.7728], [-15.7004, 27.7708], [-15.7537, 27.8146], [-15.7673, 27.8162], [-15.7874, 27.8342], [-15.7992, 27.8591], [-15.7815, 27.8682]]]]}}, {"id": "35013", "type": "Feature", "properties": {}, "geometry": {"type": "Polygon", "coordinates": [[[-15.6222, 28.067], [-15.5858, 28.106], [-15.5909, 28.1189], [-15.5886, 28.1473], [-15.5594, 28.1471], [-15.5646, 28.1363], [-15.5604, 28.1257], [-15.5716, 28.1095], [-15.5771, 28.0779], [-15.5896, 28.0689], [-15.6138, 28.0187], [-15.6222, 28.067]]]}}, {"id": "35014", "type": "Feature", "properties": {}, "geometry": {"type": "MultiPolygon", "coordinates": [[[[-14.0352, 28.6204], [-14.0355, 28.6201], [-14.0355, 28.6204], [-14.0352, 28.6204]]], [[[-14.036, 28.6203], [-14.0361, 28.6203], [-14.0361, 28.6205], [-14.036, 28.6203]]], [[[-14.0356, 28.6203], [-14.0359, 28.6202], [-14.0357, 28.6206], [-14.0356, 28.6203]]], [[[-14.0323, 28.6251], [-14.0324, 28.6251], [-14.0323, 28.6255], [-14.0323, 28.6251]]], [[[-14.0331, 28.6315], [-14.0331, 28.6318], [-14.0328, 28.6316], [-14.0331, 28.6315]]], [[[-14.0339, 28.6314], [-14.0339, 28.6315], [-14.0335, 28.6318], [-14.0339, 28.6314]]], [[[-14.0332, 28.5938], [-14.0386, 28.6152], [-14.0317, 28.6249], [-14.0324, 28.6319], [-14.0264, 28.6354], [-14.025, 28.6462], [-14.019, 28.6506], [-14.0089, 28.6772], [-14.0204, 28.6961], [-14.021, 28.7072], [-14.0145, 28.7072], [-14.0174, 28.7148], [-14.0053, 28.7111], [-13.999, 28.7244], [-13.9806, 28.7274], [-13.9771, 28.7348], [-13.9571, 28.7352], [-13.9416, 28.7462], [-13.9392, 28.7394], [-13.9378, 28.7392], [-13.9266, 28.7514], [-13.9157, 28.7448], [-13.8909, 28.757], [-13.8775, 28.7518], [-13.8743, 28.7427], [-13.8653, 28.7453], [-13.8634, 28.7316], [-13.8424, 28.7263], [-13.8309, 28.6939], [-13.8339, 28.6751], [-13.824, 28.6195], [-13.8285, 28.5646], [-13.8813, 28.573], [-13.8973, 28.5685], [-13.9094, 28.5755], [-14.0015, 28.5665], [-14.0439, 28.5776], [-14.0332, 28.5938]]], [[[-13.8169, 28.7352], [-13.8168, 28.7349], [-13.8169, 28.7349], [-13.8169, 28.7352]]], [[[-13.8147, 28.7363], [-13.8149, 28.7364], [-13.8144, 28.7367], [-13.8147, 28.7363]]], [[[-13.8183, 28.7368], [-13.8181, 28.7373], [-13.8178, 28.7362], [-13.8183, 28.7368]]], [[[-13.8161, 28.7378], [-13.8159, 28.7372], [-13.8174, 28.737], [-13.8161, 28.7378]]], [[[-13.8304, 28.7397], [-13.8357, 28.7524], [-13.8143, 28.7653], [-13.8144, 28.7394], [-13.8304, 28.7397]]], [[[-13.8299, 28.7571], [-13.8299, 28.7572], [-13.8293, 28.7566], [-13.8299, 28.7571]]]]}}, {"id": "35015", "type": "Feature", "properties": {}, "geometry": {"type": "MultiPolygon", "coordinates": [[[[-14.5127, 28.0686], [-14.512, 28.0689], [-14.5121, 28.0684], [-14.5127, 28.0686]]], [[[-14.5115, 28.0695], [-14.5114, 28.0695], [-14.5117, 28.0691], [-14.5115, 28.0695]]], [[[-14.5116, 28.0702], [-14.5114, 28.0702], [-14.5114, 28.0697], [-14.5116, 28.0702]]], [[[-14.5013, 28.0902], [-14.5011, 28.0905], [-14.5011, 28.09], [-14.5013, 28.0902]]], [[[-14.5011, 28.0912], [-14.5008, 28.0913], [-14.5008, 28.0908], [-14.5011, 28.0912]]], [[[-14.4766, 28.1042], [-14.4766, 28.1039], [-14.4768, 28.1038], [-14.4766, 28.1042]]], [[[-14.4748, 28.1048], [-14.4751, 28.1047], [-14.4751, 28.1049], [-14.4748, 28.1048]]], [[[-14.4352, 28.1024], [-14.4346, 28.1023], [-14.4348, 28.1022], [-14.4352, 28.1024]]], [[[-14.3684, 28.0544], [-14.3829, 28.0529], [-14.4776, 28.0778], [-14.51, 28.0682], [-14.4925, 28.0842], [-14.4991, 28.1007], [-14.4912, 28.111], [-14.4812, 28.1002], [-14.4558, 28.1054], [-14.4503, 28.1001], [-14.4246, 28.1031], [-14.3735, 28.1167], [-14.3069, 28.1499], [-14.223, 28.2152], [-14.2084, 28.2601], [-14.2144, 28.2872], [-14.2043, 28.3272], [-14.1774, 28.3459], [-14.1623, 28.3687], [-14.1624, 28.3898], [-14.1548, 28.405], [-14.1348, 28.4042], [-14.1227, 28.3881], [-14.1037, 28.388], [-14.0897, 28.3754], [-14.0824, 28.3804], [-14.0637, 28.3769], [-14.064, 28.3593], [-14.0582, 28.3519], [-14.076, 28.3337], [-14.1058, 28.3197], [-14.1348, 28.2923], [-14.1599, 28.2874], [-14.1383, 28.2617], [-14.1431, 28.2529], [-14.1359, 28.2228], [-14.1398, 28.2127], [-14.1281, 28.1875], [-14.1677, 28.174], [-14.1982, 28.1739], [-14.2198, 28.1644], [-14.2522, 28.1161], [-14.2668, 28.1082], [-14.3227, 28.0493], [-14.3332, 28.0439], [-14.3684, 28.0544]]], [[[-14.2099, 28.2577], [-14.2101, 28.2577], [-14.2097, 28.2581], [-14.2099, 28.2577]]], [[[-14.2092, 28.2592], [-14.2096, 28.2592], [-14.2096, 28.2594], [-14.2092, 28.2592]]], [[[-14.2118, 28.2677], [-14.2119, 28.2678], [-14.2117, 28.2681], [-14.2118, 28.2677]]], [[[-14.1617, 28.3927], [-14.1612, 28.3929], [-14.1614, 28.3924], [-14.1617, 28.3927]]]]}}, {"id": "35016", "type": "Feature", "properties": {}, "geometry": {"type": "MultiPolygon", "coordinates": [[[[-15.5272, 28.0525], [-15.5066, 28.0792], [-15.5145, 28.0838], [-15.5043, 28.1053], [-15.4994, 28.1048], [-15.4975, 28.1219], [-15.483, 28.1363], [-15.4679, 28.1261], [-15.4457, 28.1312], [-15.4312, 28.1467], [-15.433, 28.1573], [-15.4425, 28.1662], [-15.4202, 28.1816], [-15.4149, 28.1775], [-15.4071, 28.1781], [-15.405, 28.1661], [-15.3981, 28.1617], [-15.3985, 28.1523], [-15.3985, 28.1611], [-15.405, 28.1619], [-15.4072, 28.1328], [-15.4044, 28.1308], [-15.4046, 28.1213], [-15.4046, 28.1307], [-15.4076, 28.1329], [-15.4079, 28.1371], [-15.4069, 28.1582], [-15.4156, 28.1476], [-15.412, 28.1281], [-15.4177, 28.1283], [-15.4176, 28.1466], [-15.4213, 28.1417], [-15.4277, 28.1468], [-15.4212, 28.1375], [-15.4277, 28.1408], [-15.4289, 28.1307], [-15.4111, 28.1008], [-15.4198, 28.0613], [-15.416, 28.0476], [-15.3949, 28.0313], [-15.4143, 28.0308], [-15.421, 28.0388], [-15.4553, 28.0244], [-15.4514, 28.033], [-15.468, 28.0421], [-15.4779, 28.0582], [-15.5074, 28.0482], [-15.5272, 28.0525]]], [[[-15.4601, 28.1284], [-15.4601, 28.1283], [-15.4603, 28.1283], [-15.4601, 28.1284]]], [[[-15.4644, 28.1285], [-15.4647, 28.1283], [-15.4647, 28.1285], [-15.4644, 28.1285]]], [[[-15.4636, 28.1291], [-15.4638, 28.129], [-15.4638, 28.1291], [-15.4636, 28.1291]]], [[[-15.4628, 28.1292], [-15.463, 28.1291], [-15.463, 28.1292], [-15.4628, 28.1292]]], [[[-15.4571, 28.13], [-15.4569, 28.1301], [-15.4569, 28.1299], [-15.4571, 28.13]]], [[[-15.4495, 28.1326], [-15.4494, 28.1326], [-15.4495, 28.1322], [-15.4495, 28.1326]]], [[[-15.4424, 28.1369], [-15.4414, 28.1379], [-15.4413, 28.1373], [-15.4424, 28.1369]]], [[[-15.4404, 28.1383], [-15.4404, 28.1381], [-15.4412, 28.1382], [-15.4404, 28.1383]]], [[[-15.4398, 28.1392], [-15.4395, 28.1392], [-15.4397, 28.1388], [-15.4398, 28.1392]]], [[[-15.4384, 28.1417], [-15.4346, 28.1463], [-15.4368, 28.1425], [-15.4384, 28.1417]]], [[[-15.4342, 28.1543], [-15.434, 28.1539], [-15.4344, 28.154], [-15.4342, 28.1543]]], [[[-15.4035, 28.1705], [-15.4026, 28.171], [-15.4027, 28.1707], [-15.4035, 28.1705]]], [[[-15.402, 28.1723], [-15.4023, 28.1722], [-15.4024, 28.1723], [-15.402, 28.1723]]], [[[-15.4125, 28.1795], [-15.4125, 28.1793], [-15.4126, 28.1793], [-15.4125, 28.1795]]]]}}, {"id": "35017", "type": "Feature", "properties": {}, "geometry": {"type": "MultiPolygon", "coordinates": [[[[-14.0898, 28.4985], [-14.0898, 28.4984], [-14.09, 28.4983], [-14.0898, 28.4985]]], [[[-14.0872, 28.5063], [-14.0868, 28.5065], [-14.0869, 28.5062], [-14.0872, 28.5063]]], [[[-14.0744, 28.5281], [-14.0741, 28.5285], [-14.074, 28.5276], [-14.0744, 28.5281]]], [[[-14.0732, 28.5285], [-14.0734, 28.5285], [-14.0733, 28.5286], [-14.0732, 28.5285]]], [[[-14.0637, 28.5432], [-14.0668, 28.5504], [-14.0445, 28.5773], [-13.9945, 28.5661], [-13.9612, 28.5729], [-13.9351, 28.5698], [-13.9094, 28.5755], [-13.8964, 28.5685], [-13.8813, 28.573], [-13.8285, 28.5646], [-13.8255, 28.5554], [-13.8376, 28.5422], [-13.8349, 28.5259], [-13.8427, 28.5038], [-13.8547, 28.4993], [-13.855, 28.491], [-13.8564, 28.4989], [-13.8578, 28.4985], [-13.8676, 28.4807], [-13.8568, 28.4603], [-13.8623, 28.4325], [-13.8504, 28.4215], [-13.9001, 28.4328], [-13.9453, 28.4543], [-14.0167, 28.448], [-14.0434, 28.4717], [-14.0438, 28.4895], [-14.0898, 28.4948], [-14.0637, 28.5432]]], [[[-14.0702, 28.5371], [-14.0698, 28.5371], [-14.0699, 28.5369], [-14.0702, 28.5371]]], [[[-14.0695, 28.541], [-14.0698, 28.5403], [-14.0702, 28.54], [-14.0695, 28.541]]], [[[-14.0689, 28.5413], [-14.0688, 28.5416], [-14.0688, 28.5414], [-14.0689, 28.5413]]], [[[-14.0694, 28.5415], [-14.0693, 28.5417], [-14.0693, 28.5415], [-14.0694, 28.5415]]], [[[-14.0661, 28.5474], [-14.0658, 28.5474], [-14.0658, 28.5471], [-14.0661, 28.5474]]]]}}, {"id": "35018", "type": "Feature", "properties": {}, "geometry": {"type": "Polygon", "coordinates": [[[-13.6529, 29.0234], [-13.6425, 29.028], [-13.6283, 29.0211], [-13.5969, 29.0193], [-13.5847, 29.0034], [-13.5893, 29.0039], [-13.5836, 28.9518], [-13.6049, 28.9418], [-13.6437, 28.9883], [-13.6511, 29.0057], [-13.66, 29.0069], [-13.6529, 29.0234]]]}}, {"id": "35019", "type": "Feature", "properties": {}, "geometry": {"type": "Polygon", "coordinates": [[[-15.6669, 27.7696], [-15.6726, 27.7926], [-15.6589, 27.8357], [-15.6627, 27.8617], [-15.6714, 27.8717], [-15.6699, 27.9023], [-15.6377, 27.9314], [-15.6286, 27.9491], [-15.6129, 27.953], [-15.6017, 27.9658], [-15.5889, 27.9521], [-15.5695, 27.9633], [-15.5433, 27.9501], [-15.5415, 27.9313], [-15.5579, 27.9235], [-15.5506, 27.9117], [-15.5516, 27.8954], [-15.5304, 27.8777], [-15.5396, 27.8717], [-15.5284, 27.8517], [-15.5008, 27.8435], [-15.4771, 27.8505], [-15.4275, 27.8056], [-15.4337, 27.7992], [-15.4875, 27.7927], [-15.5603, 27.763], [-15.5694, 27.7383], [-15.5768, 27.7358], [-15.599, 27.7345], [-15.6198, 27.749], [-15.6286, 27.7451], [-15.66, 27.7568], [-15.6741, 27.749], [-15.6804, 27.7563], [-15.6669, 27.7696]]]}}, {"id": "35020", "type": "Feature", "properties": {}, "geometry": {"type": "MultiPolygon", "coordinates": [[[[-15.8331, 27.91], [-15.8279, 27.947], [-15.8345, 27.9703], [-15.8231, 27.9878], [-15.8174, 28.0049], [-15.8228, 28.0136], [-15.792, 28.0185], [-15.7729, 28.0318], [-15.7484, 28.0139], [-15.748, 27.9627], [-15.7382, 27.9541], [-15.7346, 27.9391], [-15.7528, 27.9193], [-15.7525, 27.9027], [-15.7815, 27.8682], [-15.7994, 27.8594], [-15.8331, 27.91]]], [[[-15.8215, 27.9961], [-15.8215, 27.9962], [-15.8213, 27.9961], [-15.8215, 27.9961]]], [[[-15.7943, 28.0193], [-15.7939, 28.0194], [-15.7938, 28.019], [-15.7943, 28.0193]]], [[[-15.7783, 28.0285], [-15.7782, 28.029], [-15.7778, 28.0288], [-15.7783, 28.0285]]]]}}, {"id": "35021", "type": "Feature", "properties": {}, "geometry": {"type": "Polygon", "coordinates": [[[-15.478, 28.0583], [-15.468, 28.0421], [-15.4508, 28.0309], [-15.4586, 28.0241], [-15.5095, 28.0139], [-15.5131, 28.0078], [-15.5391, 28.0383], [-15.478, 28.0583]]]}}, {"id": "35022", "type": "Feature", "properties": {}, "geometry": {"type": "Polygon", "coordinates": [[[-15.5187, 27.9323], [-15.5176, 27.8974], [-15.5087, 27.8784], [-15.4307, 27.8627], [-15.4093, 27.8518], [-15.4223, 27.831], [-15.4243, 27.808], [-15.4771, 27.8505], [-15.5009, 27.8435], [-15.5294, 27.8527], [-15.5396, 27.8717], [-15.5304, 27.8777], [-15.5516, 27.8954], [-15.5506, 27.9117], [-15.5579, 27.9235], [-15.5415, 27.9313], [-15.5433, 27.9501], [-15.5187, 27.9323]]]}}, {"id": "35023", "type": "Feature", "properties": {}, "geometry": {"type": "Polygon", "coordinates": [[[-15.631, 28.17], [-15.6137, 28.1477], [-15.5869, 28.1439], [-15.5916, 28.1382], [-15.5858, 28.106], [-15.6222, 28.067], [-15.6186, 28.0386], [-15.6377, 28.0669], [-15.6369, 28.1038], [-15.6315, 28.1119], [-15.6385, 28.1145], [-15.6438, 28.1354], [-15.6348, 28.1389], [-15.6496, 28.1655], [-15.631, 28.17]]]}}, {"id": "35024", "type": "Feature", "properties": {}, "geometry": {"type": "MultiPolygon", "coordinates": [[[[-13.6415, 29.1245], [-13.6397, 29.1169], [-13.6329, 29.1161], [-13.6207, 29.1275], [-13.5967, 29.136], [-13.558, 29.1158], [-13.5426, 29.1216], [-13.5304, 29.1353], [-13.5282, 29.1193], [-13.4515, 29.0807], [-13.4664, 29.0553], [-13.4648, 29.0191], [-13.4762, 29.0138], [-13.4759, 29.0055], [-13.4884, 28.9979], [-13.4859, 28.9923], [-13.5139, 28.981], [-13.5484, 28.9838], [-13.5566, 29.007], [-13.5847, 29.0034], [-13.5969, 29.0193], [-13.6505, 29.0252], [-13.6389, 29.0632], [-13.6519, 29.1231], [-13.6415, 29.1245]]], [[[-13.5401, 29.1368], [-13.5398, 29.1367], [-13.5401, 29.1367], [-13.5401, 29.1368]]], [[[-13.5382, 29.1373], [-13.5381, 29.1374], [-13.5381, 29.1373], [-13.5382, 29.1373]]], [[[-13.5376, 29.1374], [-13.5378, 29.1374], [-13.5376, 29.1376], [-13.5376, 29.1374]]], [[[-13.5392, 29.1385], [-13.5391, 29.1384], [-13.5392, 29.1384], [-13.5392, 29.1385]]], [[[-13.5313, 29.2903], [-13.5403, 29.2895], [-13.5398, 29.303], [-13.5295, 29.3031], [-13.5313, 29.2903]]], [[[-13.5277, 29.311], [-13.5267, 29.3119], [-13.5264, 29.3109], [-13.5277, 29.311]]], [[[-13.5317, 29.4007], [-13.5315, 29.4006], [-13.5316, 29.4005], [-13.5317, 29.4007]]], [[[-13.5296, 29.4028], [-13.5293, 29.4032], [-13.5292, 29.4031], [-13.5296, 29.4028]]], [[[-13.5269, 29.4054], [-13.5267, 29.4056], [-13.5266, 29.4053], [-13.5269, 29.4054]]], [[[-13.5245, 29.4102], [-13.5247, 29.4102], [-13.5247, 29.4103], [-13.5245, 29.4102]]], [[[-13.5015, 29.2266], [-13.5036, 29.2303], [-13.534, 29.2168], [-13.5476, 29.2225], [-13.5458, 29.2325], [-13.5264, 29.2426], [-13.5283, 29.2516], [-13.5205, 29.2589], [-13.5237, 29.2672], [-13.5112, 29.2907], [-13.4733, 29.2708], [-13.4721, 29.2645], [-13.4839, 29.2595], [-13.5015, 29.2266]]], [[[-13.3375, 29.2778], [-13.335, 29.2774], [-13.3353, 29.2765], [-13.3375, 29.2778]]], [[[-13.5186, 29.4101], [-13.5057, 29.416], [-13.4862, 29.4034], [-13.5068, 29.3845], [-13.5232, 29.3827], [-13.5319, 29.3948], [-13.5235, 29.4109], [-13.5186, 29.4101]]], [[[-13.4859, 29.4036], [-13.4861, 29.4037], [-13.486, 29.4038], [-13.4859, 29.4036]]], [[[-13.5188, 29.4113], [-13.519, 29.4115], [-13.5182, 29.4118], [-13.5188, 29.4113]]], [[[-13.5225, 29.412], [-13.5222, 29.4118], [-13.5224, 29.4114], [-13.5225, 29.412]]], [[[-13.5189, 29.4122], [-13.519, 29.412], [-13.5191, 29.412], [-13.5189, 29.4122]]], [[[-13.516, 29.4124], [-13.516, 29.4123], [-13.5162, 29.4123], [-13.516, 29.4124]]], [[[-13.5163, 29.4135], [-13.5149, 29.4128], [-13.5154, 29.4126], [-13.5163, 29.4135]]], [[[-13.4977, 29.4138], [-13.4971, 29.4137], [-13.4977, 29.4136], [-13.4977, 29.4138]]], [[[-13.5015, 29.414], [-13.5016, 29.4144], [-13.5013, 29.4143], [-13.5015, 29.414]]], [[[-13.5114, 29.4156], [-13.5115, 29.4152], [-13.5116, 29.4152], [-13.5114, 29.4156]]], [[[-13.5034, 29.4161], [-13.5036, 29.416], [-13.5036, 29.4162], [-13.5034, 29.4161]]], [[[-13.5046, 29.4163], [-13.5047, 29.416], [-13.505, 29.4164], [-13.5046, 29.4163]]]]}}, {"id": "35025", "type": "Feature", "properties": {}, "geometry": {"type": "Polygon", "coordinates": [[[-15.7264, 27.9802], [-15.7085, 27.9931], [-15.6923, 27.9876], [-15.6699, 28.0045], [-15.6453, 28.0018], [-15.6126, 28.0193], [-15.601, 28.0139], [-15.5923, 27.9851], [-15.5718, 27.9621], [-15.5887, 27.9521], [-15.6053, 27.9646], [-15.6129, 27.953], [-15.6286, 27.949], [-15.6302, 27.94], [-15.6545, 27.9156], [-15.6633, 27.9121], [-15.6724, 27.9178], [-15.6825, 27.909], [-15.6878, 27.9222], [-15.6831, 27.9421], [-15.6924, 27.9497], [-15.7224, 27.949], [-15.7346, 27.9391], [-15.7382, 27.9541], [-15.748, 27.9627], [-15.7496, 27.988], [-15.7264, 27.9802]]]}}, {"id": "35026", "type": "Feature", "properties": {}, "geometry": {"type": "MultiPolygon", "coordinates": [[[[-15.3593, 27.9398], [-15.3588, 27.9392], [-15.3593, 27.9389], [-15.3593, 27.9398]]], [[[-15.4978, 27.9646], [-15.484, 27.9783], [-15.4632, 27.9834], [-15.4583, 27.992], [-15.4621, 28.0071], [-15.4831, 28.0065], [-15.503, 28.0135], [-15.4848, 28.0225], [-15.4494, 28.025], [-15.4209, 28.0388], [-15.4143, 28.0308], [-15.388, 28.0298], [-15.3854, 28.0168], [-15.3732, 28.0095], [-15.3756, 27.9993], [-15.37, 27.9967], [-15.3707, 27.994], [-15.3675, 27.9926], [-15.3674, 27.9899], [-15.3781, 27.9839], [-15.3765, 27.9753], [-15.3844, 27.9674], [-15.3782, 27.9629], [-15.38, 27.9479], [-15.3683, 27.9445], [-15.3585, 27.9312], [-15.3726, 27.9358], [-15.3799, 27.9314], [-15.4029, 27.9412], [-15.4222, 27.9369], [-15.4378, 27.9469], [-15.4656, 27.9516], [-15.4946, 27.9486], [-15.5319, 27.9551], [-15.4978, 27.9646]]], [[[-15.3634, 27.9937], [-15.3629, 27.9929], [-15.3635, 27.9922], [-15.3634, 27.9937]]], [[[-15.3848, 28.0279], [-15.3858, 28.0276], [-15.3855, 28.028], [-15.3848, 28.0279]]], [[[-15.3866, 28.0295], [-15.3869, 28.0293], [-15.387, 28.0297], [-15.3866, 28.0295]]]]}}, {"id": "35027", "type": "Feature", "properties": {}, "geometry": {"type": "Polygon", "coordinates": [[[-15.563, 28.0404], [-15.5686, 28.0517], [-15.5562, 28.0782], [-15.5466, 28.0862], [-15.5209, 28.0845], [-15.5045, 28.1004], [-15.5145, 28.0838], [-15.5066, 28.0792], [-15.5272, 28.0525], [-15.507, 28.0482], [-15.5383, 28.04], [-15.5604, 28.0248], [-15.5692, 28.0261], [-15.563, 28.0404]]]}}, {"id": "35028", "type": "Feature", "properties": {}, "geometry": {"type": "Polygon", "coordinates": [[[-13.7064, 28.9626], [-13.6981, 28.9823], [-13.66, 29.0069], [-13.6511, 29.0057], [-13.6437, 28.9883], [-13.6049, 28.9418], [-13.6086, 28.9344], [-13.6437, 28.9192], [-13.676, 28.9216], [-13.707, 28.9154], [-13.7005, 28.9179], [-13.7064, 28.9626]]]}}, {"id": "35029", "type": "Feature", "properties": {}, "geometry": {"type": "MultiPolygon", "coordinates": [[[[-13.7793, 29.0619], [-13.7608, 29.0674], [-13.7562, 29.0776], [-13.723, 29.085], [-13.7078, 29.0795], [-13.7016, 29.0901], [-13.6829, 29.0954], [-13.6809, 29.1037], [-13.652, 29.1139], [-13.6524, 29.1201], [-13.6567, 29.1133], [-13.6626, 29.1183], [-13.6512, 29.1221], [-13.6389, 29.0632], [-13.6466, 29.0306], [-13.66, 29.0069], [-13.6957, 28.9857], [-13.7449, 28.998], [-13.8072, 29.0373], [-13.7793, 29.0619]]], [[[-13.7596, 29.0719], [-13.76, 29.072], [-13.7599, 29.0721], [-13.7596, 29.0719]]], [[[-13.7594, 29.0722], [-13.7597, 29.0725], [-13.7596, 29.0725], [-13.7594, 29.0722]]]]}}, {"id": "35030", "type": "Feature", "properties": {}, "geometry": {"type": "Polygon", "coordinates": [[[-14.1386, 28.2049], [-14.1359, 28.2228], [-14.1431, 28.2529], [-14.1383, 28.2617], [-14.1599, 28.2874], [-14.1348, 28.2923], [-14.1058, 28.3197], [-14.076, 28.3337], [-14.0582, 28.3519], [-14.0645, 28.3657], [-14.0596, 28.3779], [-13.9804, 28.3349], [-13.9216, 28.252], [-13.945, 28.2288], [-13.9866, 28.2282], [-14.0127, 28.2077], [-14.019, 28.2111], [-14.0239, 28.2052], [-14.0733, 28.2016], [-14.0949, 28.1923], [-14.1273, 28.189], [-14.1386, 28.2049]]]}}, {"id": "35031", "type": "Feature", "properties": {}, "geometry": {"type": "Polygon", "coordinates": [[[-15.5488, 27.9893], [-15.537, 27.9985], [-15.5193, 28.0014], [-15.5095, 28.0139], [-15.4608, 28.0061], [-15.4583, 27.9922], [-15.4633, 27.9833], [-15.4839, 27.9783], [-15.4923, 27.9677], [-15.5258, 27.9531], [-15.5416, 27.9565], [-15.5454, 27.9497], [-15.5543, 27.9542], [-15.5488, 27.9893]]]}}, {"id": "35032", "type": "Feature", "properties": {}, "geometry": {"type": "Polygon", "coordinates": [[[-15.5869, 28.0722], [-15.5562, 28.0782], [-15.5686, 28.0517], [-15.563, 28.0404], [-15.5692, 28.0261], [-15.6, 28.0116], [-15.6138, 28.0187], [-15.5869, 28.0722]]]}}, {"id": "35033", "type": "Feature", "properties": {}, "geometry": {"type": "Polygon", "coordinates": [[[-15.5391, 28.0383], [-15.5131, 28.0078], [-15.5488, 27.9893], [-15.5543, 27.9542], [-15.5718, 27.9621], [-15.5923, 27.9851], [-15.6, 28.0116], [-15.5391, 28.0383]]]}}, {"id": "35034", "type": "Feature", "properties": {}, "geometry": {"type": "MultiPolygon", "coordinates": [[[[-13.6957, 28.9857], [-13.7064, 28.9626], [-13.7005, 28.9179], [-13.7387, 28.9049], [-13.7491, 28.8746], [-13.7872, 28.8384], [-13.8022, 28.8587], [-13.8114, 28.8546], [-13.8292, 28.8627], [-13.8392, 28.8554], [-13.854, 28.8619], [-13.8745, 28.8565], [-13.8751, 28.8772], [-13.8818, 28.8861], [-13.8578, 28.8974], [-13.8475, 28.9154], [-13.8291, 28.9305], [-13.8344, 28.9404], [-13.8305, 28.9601], [-13.8346, 28.9697], [-13.8342, 28.9703], [-13.829, 28.9771], [-13.8339, 28.9899], [-13.8152, 29.0333], [-13.8073, 29.0372], [-13.7449, 28.998], [-13.6957, 28.9857]]], [[[-13.8346, 28.9418], [-13.8345, 28.9417], [-13.8347, 28.9417], [-13.8346, 28.9418]]], [[[-13.8342, 28.9429], [-13.834, 28.9429], [-13.8341, 28.9428], [-13.8342, 28.9429]]], [[[-13.8347, 28.9708], [-13.8342, 28.9703], [-13.8348, 28.9703], [-13.8347, 28.9708]]]]}}, {"id": "38001", "type": "Feature", "properties": {}, "geometry": {"type": "MultiPolygon", "coordinates": [[[[-16.7449, 28.0907], [-16.7447, 28.0905], [-16.7457, 28.0907], [-16.7449, 28.0907]]], [[[-16.748, 28.0918], [-16.7489, 28.0921], [-16.7488, 28.0922], [-16.748, 28.0918]]], [[[-16.7623, 28.0998], [-16.7618, 28.0999], [-16.762, 28.0998], [-16.7623, 28.0998]]], [[[-16.7615, 28.1], [-16.7616, 28.1001], [-16.7608, 28.1004], [-16.7615, 28.1]]], [[[-16.7805, 28.1231], [-16.7812, 28.1229], [-16.7812, 28.1232], [-16.7805, 28.1231]]], [[[-16.7839, 28.126], [-16.784, 28.1261], [-16.7839, 28.1262], [-16.7839, 28.126]]], [[[-16.738, 28.0833], [-16.7383, 28.0839], [-16.7382, 28.0839], [-16.738, 28.0833]]], [[[-16.7389, 28.0848], [-16.7391, 28.0853], [-16.739, 28.0853], [-16.7389, 28.0848]]], [[[-16.7395, 28.086], [-16.74, 28.0867], [-16.7398, 28.0867], [-16.7395, 28.086]]], [[[-16.7436, 28.0901], [-16.7436, 28.09], [-16.7441, 28.0901], [-16.7436, 28.0901]]], [[[-16.7203, 28.1788], [-16.6807, 28.2128], [-16.6604, 28.2013], [-16.6874, 28.1391], [-16.6843, 28.1194], [-16.6913, 28.0954], [-16.722, 28.0662], [-16.7335, 28.067], [-16.7388, 28.0879], [-16.7772, 28.1176], [-16.7759, 28.1197], [-16.7952, 28.1427], [-16.8011, 28.1571], [-16.7203, 28.1788]]]]}}, {"id": "38002", "type": "Feature", "properties": {}, "geometry": {"type": "MultiPolygon", "coordinates": [[[[-17.2567, 28.1314], [-17.2527, 28.1538], [-17.2293, 28.1852], [-17.2363, 28.1969], [-17.2357, 28.2037], [-17.2334, 28.2004], [-17.2296, 28.2029], [-17.2259, 28.2], [-17.2154, 28.1996], [-17.2109, 28.2021], [-17.2066, 28.1969], [-17.1961, 28.2001], [-17.1968, 28.198], [-17.1928, 28.1932], [-17.1858, 28.1881], [-17.1843, 28.1814], [-17.1918, 28.1822], [-17.2152, 28.1659], [-17.2371, 28.1394], [-17.2437, 28.1154], [-17.2567, 28.1314]]], [[[-17.2073, 28.1983], [-17.2072, 28.1986], [-17.2069, 28.1986], [-17.2073, 28.1983]]], [[[-17.2137, 28.2014], [-17.2139, 28.2014], [-17.2138, 28.2015], [-17.2137, 28.2014]]], [[[-17.2118, 28.2024], [-17.212, 28.2027], [-17.2112, 28.2027], [-17.2118, 28.2024]]], [[[-17.1932, 28.1967], [-17.1933, 28.1967], [-17.1931, 28.1968], [-17.1932, 28.1967]]], [[[-17.1962, 28.1978], [-17.1962, 28.1979], [-17.1961, 28.1979], [-17.1962, 28.1978]]], [[[-17.1962, 28.1991], [-17.1961, 28.1991], [-17.1962, 28.1989], [-17.1962, 28.1991]]], [[[-17.202, 28.1995], [-17.2019, 28.1995], [-17.2019, 28.1994], [-17.202, 28.1995]]]]}}, {"id": "38003", "type": "Feature", "properties": {}, "geometry": {"type": "MultiPolygon", "coordinates": [[[[-17.2573, 28.0865], [-17.2449, 28.111], [-17.1921, 28.0296], [-17.1986, 28.0239], [-17.2281, 28.0266], [-17.2434, 28.0199], [-17.2695, 28.025], [-17.2726, 28.0271], [-17.2738, 28.0325], [-17.2727, 28.0351], [-17.2733, 28.0361], [-17.281, 28.0387], [-17.2866, 28.0392], [-17.2894, 28.0381], [-17.2943, 28.0515], [-17.2573, 28.0865]]]]}}, {"id": "38004", "type": "Feature", "properties": {}, "geometry": {"type": "Polygon", "coordinates": [[[-16.482, 28.3475], [-16.467, 28.3552], [-16.4609, 28.3772], [-16.4455, 28.3906], [-16.4466, 28.383], [-16.4065, 28.3509], [-16.3847, 28.3394], [-16.3663, 28.3397], [-16.3622, 28.3314], [-16.3758, 28.3276], [-16.4082, 28.3344], [-16.4841, 28.335], [-16.482, 28.3475]]]}}, {"id": "38005", "type": "Feature", "properties": {}, "geometry": {"type": "MultiPolygon", "coordinates": [[[[-16.4729, 28.1037], [-16.4731, 28.1038], [-16.4729, 28.1038], [-16.4729, 28.1037]]], [[[-16.4722, 28.1059], [-16.4723, 28.1059], [-16.4722, 28.1061], [-16.4722, 28.1059]]], [[[-16.4624, 28.1132], [-16.4626, 28.1134], [-16.4624, 28.1134], [-16.4624, 28.1132]]], [[[-16.461, 28.1211], [-16.4609, 28.1212], [-16.4608, 28.1212], [-16.461, 28.1211]]], [[[-16.4457, 28.1344], [-16.4459, 28.1344], [-16.4458, 28.1345], [-16.4457, 28.1344]]], [[[-16.432, 28.1425], [-16.4322, 28.1425], [-16.432, 28.1426], [-16.432, 28.1425]]], [[[-16.5525, 28.2507], [-16.5445, 28.27], [-16.5465, 28.2812], [-16.5377, 28.2871], [-16.4277, 28.1996], [-16.4233, 28.1929], [-16.4302, 28.1736], [-16.4249, 28.1683], [-16.4315, 28.1646], [-16.4344, 28.1556], [-16.4252, 28.1502], [-16.4492, 28.1344], [-16.4488, 28.1294], [-16.4631, 28.1205], [-16.4621, 28.114], [-16.4722, 28.1083], [-16.4818, 28.0954], [-16.5044, 28.1261], [-16.52, 28.1309], [-16.5354, 28.1559], [-16.5557, 28.169], [-16.5771, 28.2002], [-16.5896, 28.2043], [-16.5989, 28.2187], [-16.5525, 28.2507]]], [[[-16.4294, 28.144], [-16.4296, 28.1439], [-16.4296, 28.1441], [-16.4294, 28.144]]], [[[-16.4282, 28.1524], [-16.4284, 28.1524], [-16.4284, 28.1525], [-16.4282, 28.1524]]], [[[-16.428, 28.1527], [-16.4279, 28.1528], [-16.4278, 28.1527], [-16.428, 28.1527]]]]}}, {"id": "38006", "type": "Feature", "properties": {}, "geometry": {"type": "MultiPolygon", "coordinates": [[[[-16.6563, 28.0053], [-16.6565, 28.0052], [-16.6566, 28.0053], [-16.6563, 28.0053]]], [[[-16.722, 28.0662], [-16.699, 28.0848], [-16.6846, 28.1206], [-16.6418, 28.1045], [-16.6383, 28.0065], [-16.6644, 28.0088], [-16.679, 27.9981], [-16.702, 28.0041], [-16.7077, 28.0108], [-16.7046, 28.0269], [-16.7113, 28.0472], [-16.7373, 28.0554], [-16.7314, 28.0673], [-16.722, 28.0662]]]]}}, {"id": "38007", "type": "Feature", "properties": {}, "geometry": {"type": "MultiPolygon", "coordinates": [[[[-17.8616, 28.7858], [-17.847, 28.8171], [-17.8481, 28.8351], [-17.8145, 28.8392], [-17.809, 28.8453], [-17.807, 28.8431], [-17.8033, 28.8419], [-17.7775, 28.8403], [-17.7694, 28.8243], [-17.7758, 28.8128], [-17.8111, 28.7996], [-17.8533, 28.7542], [-17.8635, 28.7607], [-17.8616, 28.7858]]], [[[-17.8466, 28.8359], [-17.8466, 28.836], [-17.8463, 28.8358], [-17.8466, 28.8359]]], [[[-17.8428, 28.8363], [-17.8427, 28.8364], [-17.8427, 28.8362], [-17.8428, 28.8363]]], [[[-17.8478, 28.8368], [-17.8478, 28.8365], [-17.8479, 28.8366], [-17.8478, 28.8368]]], [[[-17.8427, 28.8372], [-17.8427, 28.8368], [-17.8428, 28.8368], [-17.8427, 28.8372]]], [[[-17.8169, 28.8399], [-17.817, 28.8401], [-17.8169, 28.8401], [-17.8169, 28.8399]]], [[[-17.8071, 28.8439], [-17.8072, 28.8437], [-17.8074, 28.8438], [-17.8071, 28.8439]]]]}}, {"id": "38027", "type": "Feature", "properties": {}, "geometry": {"type": "Polygon", "coordinates": [[[-17.9235, 28.6936], [-17.8959, 28.7475], [-17.8754, 28.7626], [-17.8393, 28.7464], [-17.8357, 28.727], [-17.8461, 28.7041], [-17.8302, 28.6837], [-17.8246, 28.6411], [-17.841, 28.6044], [-17.8389, 28.5553], [-17.8746, 28.5547], [-17.8858, 28.6277], [-17.9052, 28.6546], [-17.8896, 28.6591], [-17.9112, 28.673], [-17.9234, 28.6671], [-17.9282, 28.6723], [-17.9235, 28.6936]]]}}, {"id": "38028", "type": "Feature", "properties": {}, "geometry": {"type": "MultiPolygon", "coordinates": [[[[-16.5434, 28.4211], [-16.5401, 28.4168], [-16.5233, 28.4172], [-16.52, 28.4079], [-16.5331, 28.4053], [-16.5387, 28.3967], [-16.5544, 28.3976], [-16.5574, 28.3916], [-16.5706, 28.4078], [-16.5434, 28.4211]]], [[[-16.5666, 28.4121], [-16.5665, 28.412], [-16.5665, 28.4118], [-16.5666, 28.4121]]], [[[-16.5613, 28.4127], [-16.5613, 28.4128], [-16.561, 28.4127], [-16.5613, 28.4127]]], [[[-16.5312, 28.418], [-16.5312, 28.4178], [-16.5313, 28.4179], [-16.5312, 28.418]]], [[[-16.5277, 28.4183], [-16.5277, 28.4182], [-16.5278, 28.4182], [-16.5277, 28.4183]]]]}}, {"id": "38029", "type": "Feature", "properties": {}, "geometry": {"type": "MultiPolygon", "coordinates": [[[[-18.0079, 28.7694], [-18.0079, 28.7695], [-18.0078, 28.7695], [-18.0079, 28.7694]]], [[[-18.0073, 28.7703], [-18.0072, 28.7701], [-18.0074, 28.7701], [-18.0073, 28.7703]]], [[[-18.008, 28.7706], [-18.008, 28.7708], [-18.0079, 28.7707], [-18.008, 28.7706]]], [[[-18.0072, 28.7713], [-18.0079, 28.7715], [-18.0077, 28.7716], [-18.0072, 28.7713]]], [[[-18.0073, 28.7745], [-18.0079, 28.7747], [-18.0074, 28.7747], [-18.0073, 28.7745]]], [[[-18.0074, 28.7751], [-18.0074, 28.7752], [-18.0073, 28.7751], [-18.0074, 28.7751]]], [[[-18.0079, 28.7759], [-18.0081, 28.7759], [-18.0081, 28.7761], [-18.0079, 28.7759]]], [[[-17.9942, 28.7414], [-17.9941, 28.7412], [-17.9942, 28.7412], [-17.9942, 28.7414]]], [[[-18.0055, 28.7601], [-18.0058, 28.7604], [-18.0056, 28.7605], [-18.0055, 28.7601]]], [[[-18.0048, 28.766], [-18.0047, 28.7659], [-18.0048, 28.7658], [-18.0048, 28.766]]], [[[-18.0054, 28.766], [-18.0053, 28.7659], [-18.0054, 28.7658], [-18.0054, 28.766]]], [[[-17.9944, 28.7439], [-18.0006, 28.7471], [-18.0072, 28.7578], [-18.0041, 28.7606], [-18.0035, 28.7632], [-18.0057, 28.7846], [-17.9985, 28.7876], [-17.9949, 28.7961], [-17.9822, 28.7938], [-17.9623, 28.7725], [-17.9362, 28.7663], [-17.9214, 28.7532], [-17.8902, 28.7504], [-17.9002, 28.7406], [-17.966, 28.7506], [-17.9944, 28.7439]]], [[[-18.0033, 28.7871], [-18.0034, 28.787], [-18.0034, 28.7872], [-18.0033, 28.7871]]]]}}, {"id": "38030", "type": "Feature", "properties": {}, "geometry": {"type": "MultiPolygon", "coordinates": [[[[-17.7881, 28.7509], [-17.7534, 28.7826], [-17.75, 28.7719], [-17.7418, 28.761], [-17.735, 28.7584], [-17.7343, 28.7531], [-17.7297, 28.7476], [-17.7299, 28.7442], [-17.7242, 28.7384], [-17.7326, 28.7202], [-17.7523, 28.7051], [-17.7639, 28.7225], [-17.7844, 28.7326], [-17.8166, 28.7393], [-17.8356, 28.7347], [-17.8382, 28.7436], [-17.7881, 28.7509]]], [[[-17.7432, 28.7662], [-17.7434, 28.7659], [-17.7436, 28.7662], [-17.7432, 28.7662]]], [[[-17.7443, 28.7679], [-17.7445, 28.7678], [-17.7445, 28.7679], [-17.7443, 28.7679]]], [[[-17.7443, 28.7681], [-17.7443, 28.768], [-17.7444, 28.768], [-17.7443, 28.7681]]], [[[-17.7448, 28.7684], [-17.7448, 28.7683], [-17.7449, 28.7683], [-17.7448, 28.7684]]], [[[-17.7439, 28.7691], [-17.7441, 28.7691], [-17.744, 28.7692], [-17.7439, 28.7691]]], [[[-17.729, 28.7442], [-17.7293, 28.744], [-17.7293, 28.7441], [-17.729, 28.7442]]], [[[-17.7332, 28.7526], [-17.7331, 28.7525], [-17.7332, 28.7525], [-17.7332, 28.7526]]], [[[-17.7321, 28.7533], [-17.7319, 28.7533], [-17.7321, 28.7527], [-17.7321, 28.7533]]], [[[-17.7352, 28.7595], [-17.735, 28.7596], [-17.7348, 28.7592], [-17.7352, 28.7595]]]]}}, {"id": "38031", "type": "Feature", "properties": {}, "geometry": {"type": "MultiPolygon", "coordinates": [[[[-16.6034, 28.394], [-16.5974, 28.4004], [-16.593, 28.3977], [-16.5879, 28.398], [-16.5726, 28.4041], [-16.5711, 28.4078], [-16.5641, 28.3939], [-16.5586, 28.394], [-16.562, 28.3755], [-16.5551, 28.3449], [-16.5579, 28.3104], [-16.5653, 28.2981], [-16.589, 28.2929], [-16.5918, 28.316], [-16.6234, 28.3672], [-16.6234, 28.3959], [-16.6034, 28.394]]], [[[-16.6164, 28.396], [-16.6162, 28.3962], [-16.6161, 28.3961], [-16.6164, 28.396]]], [[[-16.5943, 28.3997], [-16.5945, 28.3998], [-16.5945, 28.4], [-16.5943, 28.3997]]], [[[-16.595, 28.4003], [-16.5949, 28.4001], [-16.5951, 28.4002], [-16.595, 28.4003]]], [[[-16.5801, 28.4038], [-16.5801, 28.4036], [-16.5802, 28.4036], [-16.5801, 28.4038]]], [[[-16.5731, 28.4042], [-16.5732, 28.4041], [-16.5733, 28.4044], [-16.5731, 28.4042]]], [[[-16.5745, 28.4043], [-16.5748, 28.4043], [-16.5748, 28.4044], [-16.5745, 28.4043]]], [[[-16.5776, 28.405], [-16.5777, 28.405], [-16.5777, 28.4051], [-16.5776, 28.405]]], [[[-16.5761, 28.4059], [-16.5761, 28.4057], [-16.5762, 28.4058], [-16.5761, 28.4059]]]]}}, {"id": "38032", "type": "Feature", "properties": {}, "geometry": {"type": "Polygon", "coordinates": [[[-16.3687, 28.4692], [-16.3305, 28.4547], [-16.3452, 28.4286], [-16.3287, 28.4166], [-16.3188, 28.4204], [-16.3076, 28.4098], [-16.3374, 28.3963], [-16.3794, 28.4138], [-16.4069, 28.4145], [-16.3687, 28.4692]]]}}, {"id": "38033", "type": "Feature", "properties": {}, "geometry": {"type": "Polygon", "coordinates": [[[-17.8111, 28.7996], [-17.7895, 28.8044], [-17.7894, 28.8064], [-17.7698, 28.8192], [-17.7622, 28.8113], [-17.7534, 28.7826], [-17.7854, 28.7526], [-17.8382, 28.7436], [-17.8533, 28.7542], [-17.8111, 28.7996]]]}}, {"id": "38034", "type": "Feature", "properties": {}, "geometry": {"type": "MultiPolygon", "coordinates": [[[[-16.6472, 28.3961], [-16.6442, 28.3986], [-16.6372, 28.3941], [-16.6237, 28.3959], [-16.6234, 28.3672], [-16.5923, 28.3147], [-16.6081, 28.3069], [-16.6485, 28.3721], [-16.6553, 28.3886], [-16.6472, 28.3961]]], [[[-16.6383, 28.3955], [-16.6383, 28.3956], [-16.6382, 28.3957], [-16.6383, 28.3955]]], [[[-16.6316, 28.3963], [-16.6317, 28.3963], [-16.6316, 28.3965], [-16.6316, 28.3963]]], [[[-16.6489, 28.3964], [-16.6492, 28.3968], [-16.6491, 28.3968], [-16.6489, 28.3964]]], [[[-16.6487, 28.3968], [-16.6487, 28.3971], [-16.6482, 28.3968], [-16.6487, 28.3968]]]]}}, {"id": "38035", "type": "Feature", "properties": {}, "geometry": {"type": "MultiPolygon", "coordinates": [[[[-16.6234, 28.0179], [-16.6233, 28.0177], [-16.6234, 28.0177], [-16.6234, 28.0179]]], [[[-16.6236, 28.018], [-16.6238, 28.018], [-16.6237, 28.0182], [-16.6236, 28.018]]], [[[-16.6222, 28.0182], [-16.6223, 28.0181], [-16.6224, 28.0183], [-16.6222, 28.0182]]], [[[-16.6415, 28.116], [-16.6201, 28.1342], [-16.5997, 28.0937], [-16.6069, 28.0458], [-16.5973, 28.028], [-16.6258, 28.0184], [-16.6334, 28.0087], [-16.6391, 28.0094], [-16.6415, 28.116]]]]}}, {"id": "38036", "type": "Feature", "properties": {}, "geometry": {"type": "MultiPolygon", "coordinates": [[[[-17.16, 28.0479], [-17.16, 28.0478], [-17.1602, 28.0481], [-17.16, 28.0479]]], [[[-17.1445, 28.0602], [-17.1444, 28.0603], [-17.1443, 28.0602], [-17.1445, 28.0602]]], [[[-17.135, 28.0683], [-17.1351, 28.0684], [-17.135, 28.0684], [-17.135, 28.0683]]], [[[-17.1135, 28.0819], [-17.1136, 28.0818], [-17.1136, 28.0819], [-17.1135, 28.0819]]], [[[-17.2207, 28.1081], [-17.2166, 28.1217], [-17.1956, 28.127], [-17.1692, 28.1482], [-17.152, 28.1474], [-17.1382, 28.1606], [-17.1186, 28.1535], [-17.1121, 28.1444], [-17.114, 28.1356], [-17.1034, 28.1283], [-17.1061, 28.1227], [-17.1039, 28.1142], [-17.1013, 28.1143], [-17.1059, 28.1108], [-17.1043, 28.1037], [-17.0985, 28.0957], [-17.1054, 28.0911], [-17.1044, 28.0895], [-17.1054, 28.0893], [-17.106, 28.0877], [-17.1068, 28.0878], [-17.1087, 28.0838], [-17.1097, 28.0824], [-17.1074, 28.0893], [-17.1121, 28.0884], [-17.1181, 28.0754], [-17.1282, 28.0738], [-17.1371, 28.0676], [-17.1419, 28.0643], [-17.1447, 28.0607], [-17.1454, 28.0542], [-17.1524, 28.0551], [-17.1676, 28.0427], [-17.1678, 28.0361], [-17.1796, 28.038], [-17.1881, 28.0292], [-17.2097, 28.0502], [-17.2378, 28.1066], [-17.2207, 28.1081]]], [[[-17.1135, 28.0824], [-17.1135, 28.0825], [-17.1134, 28.0824], [-17.1135, 28.0824]]], [[[-17.1008, 28.1145], [-17.1009, 28.1145], [-17.1009, 28.1146], [-17.1008, 28.1145]]], [[[-17.1049, 28.1208], [-17.1049, 28.1206], [-17.1051, 28.1206], [-17.1049, 28.1208]]], [[[-17.1057, 28.1223], [-17.1058, 28.1224], [-17.1056, 28.1223], [-17.1057, 28.1223]]]]}}, {"id": "38037", "type": "Feature", "properties": {}, "geometry": {"type": "Polygon", "coordinates": [[[-17.8005, 28.737], [-17.7639, 28.7225], [-17.7523, 28.7051], [-17.7656, 28.6802], [-17.7639, 28.6712], [-17.7664, 28.6793], [-17.7733, 28.6761], [-17.7717, 28.6868], [-17.7961, 28.6758], [-17.8336, 28.688], [-17.8461, 28.7041], [-17.8356, 28.7347], [-17.8005, 28.737]]]}}, {"id": "38038", "type": "Feature", "properties": {}, "geometry": {"type": "MultiPolygon", "coordinates": [[[[-16.3006, 28.4455], [-16.2942, 28.432], [-16.2899, 28.4602], [-16.2821, 28.4659], [-16.2703, 28.4985], [-16.2865, 28.514], [-16.2791, 28.5328], [-16.2671, 28.5436], [-16.2738, 28.5633], [-16.2721, 28.5752], [-16.2737, 28.5778], [-16.2571, 28.5694], [-16.2289, 28.5661], [-16.2285, 28.5661], [-16.2284, 28.5661], [-16.2283, 28.5661], [-16.223, 28.5654], [-16.1927, 28.5721], [-16.1581, 28.5887], [-16.1565, 28.5879], [-16.1543, 28.5868], [-16.1385, 28.5834], [-16.1359, 28.5828], [-16.1337, 28.5803], [-16.1352, 28.5774], [-16.1341, 28.574], [-16.1272, 28.5715], [-16.1269, 28.5638], [-16.1229, 28.5597], [-16.1199, 28.5594], [-16.1276, 28.546], [-16.1296, 28.5365], [-16.1257, 28.5321], [-16.133, 28.535], [-16.1393, 28.5311], [-16.1433, 28.5214], [-16.1673, 28.5185], [-16.1958, 28.4965], [-16.2112, 28.4929], [-16.2027, 28.4991], [-16.2252, 28.4837], [-16.2197, 28.4894], [-16.2371, 28.4855], [-16.2462, 28.471], [-16.2356, 28.479], [-16.247, 28.4557], [-16.2423, 28.466], [-16.2428, 28.4681], [-16.249, 28.4545], [-16.2698, 28.4474], [-16.3072, 28.4099], [-16.3195, 28.4208], [-16.3362, 28.4191], [-16.3452, 28.4286], [-16.3291, 28.4529], [-16.3006, 28.4455]]], [[[-16.2309, 28.5668], [-16.2309, 28.5667], [-16.231, 28.5667], [-16.2309, 28.5668]]], [[[-16.2319, 28.5667], [-16.2318, 28.5668], [-16.2318, 28.5667], [-16.2319, 28.5667]]], [[[-16.2306, 28.5672], [-16.2305, 28.5672], [-16.2305, 28.5671], [-16.2306, 28.5672]]], [[[-16.2356, 28.5696], [-16.2357, 28.5694], [-16.2358, 28.5695], [-16.2356, 28.5696]]], [[[-16.2358, 28.5699], [-16.2358, 28.57], [-16.2357, 28.57], [-16.2358, 28.5699]]], [[[-16.2367, 28.5699], [-16.2367, 28.57], [-16.2366, 28.57], [-16.2367, 28.5699]]], [[[-16.2363, 28.5699], [-16.2363, 28.5701], [-16.2362, 28.57], [-16.2363, 28.5699]]], [[[-16.2383, 28.5703], [-16.2383, 28.5705], [-16.2382, 28.5704], [-16.2383, 28.5703]]], [[[-16.245, 28.5714], [-16.2454, 28.5713], [-16.2452, 28.5715], [-16.245, 28.5714]]], [[[-16.2455, 28.5716], [-16.2457, 28.5716], [-16.2453, 28.5717], [-16.2455, 28.5716]]], [[[-16.2494, 28.5717], [-16.2493, 28.5717], [-16.2494, 28.5716], [-16.2494, 28.5717]]], [[[-16.2607, 28.5723], [-16.2609, 28.5727], [-16.2606, 28.5726], [-16.2607, 28.5723]]], [[[-16.2629, 28.5736], [-16.2631, 28.5737], [-16.263, 28.5739], [-16.2629, 28.5736]]], [[[-16.2647, 28.5745], [-16.2647, 28.5746], [-16.2645, 28.5747], [-16.2647, 28.5745]]], [[[-16.2725, 28.5754], [-16.2729, 28.5755], [-16.2728, 28.5757], [-16.2725, 28.5754]]], [[[-16.2695, 28.5764], [-16.2695, 28.5763], [-16.2696, 28.5764], [-16.2695, 28.5764]]], [[[-16.2248, 28.5659], [-16.2247, 28.5659], [-16.2248, 28.5658], [-16.2248, 28.5659]]], [[[-16.2266, 28.5662], [-16.2265, 28.5661], [-16.2266, 28.5661], [-16.2266, 28.5662]]], [[[-16.2185, 28.5679], [-16.2184, 28.568], [-16.2184, 28.5679], [-16.2185, 28.5679]]], [[[-16.2164, 28.5681], [-16.2163, 28.568], [-16.2164, 28.568], [-16.2164, 28.5681]]], [[[-16.2128, 28.5692], [-16.2127, 28.5692], [-16.2128, 28.5691], [-16.2128, 28.5692]]], [[[-16.2104, 28.5692], [-16.2103, 28.5691], [-16.2104, 28.5691], [-16.2104, 28.5692]]], [[[-16.2083, 28.5693], [-16.2083, 28.569], [-16.2084, 28.5693], [-16.2083, 28.5693]]], [[[-16.2068, 28.5726], [-16.2067, 28.5728], [-16.2064, 28.5725], [-16.2068, 28.5726]]], [[[-16.2045, 28.5725], [-16.2047, 28.5725], [-16.2045, 28.5727], [-16.2045, 28.5725]]], [[[-16.2061, 28.5725], [-16.2062, 28.5725], [-16.2061, 28.5728], [-16.2061, 28.5725]]], [[[-16.2052, 28.5728], [-16.2052, 28.5726], [-16.2056, 28.5726], [-16.2052, 28.5728]]], [[[-16.2058, 28.5726], [-16.2058, 28.5728], [-16.2057, 28.5728], [-16.2058, 28.5726]]], [[[-16.2023, 28.5732], [-16.2025, 28.573], [-16.2025, 28.5732], [-16.2023, 28.5732]]], [[[-16.2012, 28.5733], [-16.2012, 28.5735], [-16.2009, 28.5733], [-16.2012, 28.5733]]], [[[-16.2022, 28.5735], [-16.2024, 28.5738], [-16.2021, 28.5737], [-16.2022, 28.5735]]], [[[-16.2009, 28.5748], [-16.2009, 28.5747], [-16.201, 28.5747], [-16.2009, 28.5748]]], [[[-16.1917, 28.5751], [-16.1915, 28.575], [-16.1916, 28.5749], [-16.1917, 28.5751]]], [[[-16.1905, 28.5754], [-16.1904, 28.5755], [-16.1904, 28.5754], [-16.1905, 28.5754]]], [[[-16.187, 28.5758], [-16.1867, 28.5758], [-16.1868, 28.5757], [-16.187, 28.5758]]], [[[-16.204, 28.5757], [-16.2045, 28.576], [-16.2042, 28.5761], [-16.204, 28.5757]]], [[[-16.1912, 28.576], [-16.1912, 28.5761], [-16.1911, 28.5761], [-16.1912, 28.576]]], [[[-16.1896, 28.5764], [-16.1895, 28.5764], [-16.1895, 28.5763], [-16.1896, 28.5764]]], [[[-16.1875, 28.5766], [-16.1874, 28.5767], [-16.1874, 28.5764], [-16.1875, 28.5766]]], [[[-16.1872, 28.5768], [-16.1875, 28.5768], [-16.1875, 28.577], [-16.1872, 28.5768]]], [[[-16.1845, 28.5777], [-16.1844, 28.5779], [-16.1843, 28.5778], [-16.1845, 28.5777]]], [[[-16.1756, 28.5822], [-16.1755, 28.5821], [-16.1757, 28.5821], [-16.1756, 28.5822]]], [[[-16.1734, 28.5838], [-16.1734, 28.5837], [-16.1735, 28.5837], [-16.1734, 28.5838]]], [[[-16.1737, 28.5852], [-16.1734, 28.5853], [-16.1735, 28.5849], [-16.1737, 28.5852]]], [[[-16.1732, 28.585], [-16.1733, 28.5851], [-16.1731, 28.5854], [-16.1732, 28.585]]], [[[-16.1717, 28.5854], [-16.1715, 28.5854], [-16.1715, 28.5853], [-16.1717, 28.5854]]], [[[-16.1724, 28.5853], [-16.1729, 28.5851], [-16.172, 28.5859], [-16.1724, 28.5853]]], [[[-16.1719, 28.5853], [-16.1722, 28.5853], [-16.1717, 28.5857], [-16.1719, 28.5853]]], [[[-16.152, 28.5868], [-16.1521, 28.5868], [-16.1521, 28.5869], [-16.152, 28.5868]]], [[[-16.1663, 28.5876], [-16.1661, 28.5876], [-16.1662, 28.5875], [-16.1663, 28.5876]]], [[[-16.1657, 28.5877], [-16.1658, 28.5876], [-16.1658, 28.588], [-16.1657, 28.5877]]], [[[-16.1665, 28.5879], [-16.166, 28.588], [-16.1661, 28.5878], [-16.1665, 28.5879]]], [[[-16.1612, 28.5933], [-16.1587, 28.5945], [-16.1587, 28.5911], [-16.1612, 28.5933]]], [[[-16.1547, 28.605], [-16.1575, 28.6018], [-16.1574, 28.6039], [-16.1547, 28.605]]], [[[-16.1448, 28.5206], [-16.1449, 28.5205], [-16.1449, 28.5206], [-16.1448, 28.5206]]], [[[-16.141, 28.5259], [-16.1407, 28.5259], [-16.1407, 28.5254], [-16.141, 28.5259]]], [[[-16.138, 28.5318], [-16.1379, 28.5318], [-16.138, 28.5317], [-16.138, 28.5318]]], [[[-16.1276, 28.5361], [-16.1275, 28.5359], [-16.1277, 28.536], [-16.1276, 28.5361]]], [[[-16.1281, 28.5378], [-16.1279, 28.5378], [-16.128, 28.5376], [-16.1281, 28.5378]]], [[[-16.1282, 28.5382], [-16.128, 28.5384], [-16.1282, 28.538], [-16.1282, 28.5382]]], [[[-16.1298, 28.5739], [-16.1297, 28.5739], [-16.1297, 28.5738], [-16.1298, 28.5739]]], [[[-16.1309, 28.574], [-16.1309, 28.5741], [-16.1308, 28.574], [-16.1309, 28.574]]], [[[-16.134, 28.5763], [-16.1339, 28.5764], [-16.1339, 28.5763], [-16.134, 28.5763]]], [[[-16.1338, 28.5765], [-16.1339, 28.5764], [-16.134, 28.5767], [-16.1338, 28.5765]]], [[[-16.1343, 28.5784], [-16.1344, 28.5787], [-16.1343, 28.5787], [-16.1343, 28.5784]]], [[[-16.1335, 28.58], [-16.1337, 28.5801], [-16.1335, 28.5803], [-16.1335, 28.58]]], [[[-16.1326, 28.5805], [-16.1335, 28.5809], [-16.1324, 28.5812], [-16.1326, 28.5805]]], [[[-16.1335, 28.5812], [-16.1336, 28.5812], [-16.1335, 28.5813], [-16.1335, 28.5812]]], [[[-16.132, 28.5813], [-16.132, 28.5816], [-16.1318, 28.5816], [-16.132, 28.5813]]], [[[-16.1366, 28.5831], [-16.1365, 28.5834], [-16.1364, 28.5833], [-16.1366, 28.5831]]], [[[-16.1382, 28.5834], [-16.1382, 28.5835], [-16.138, 28.5835], [-16.1382, 28.5834]]], [[[-16.1384, 28.5835], [-16.1385, 28.5834], [-16.1386, 28.5837], [-16.1384, 28.5835]]], [[[-16.1383, 28.5843], [-16.1384, 28.5842], [-16.1384, 28.5847], [-16.1383, 28.5843]]], [[[-16.1402, 28.5851], [-16.1403, 28.585], [-16.1404, 28.5851], [-16.1402, 28.5851]]], [[[-16.1434, 28.5856], [-16.1435, 28.5857], [-16.1433, 28.5857], [-16.1434, 28.5856]]], [[[-16.1484, 28.5866], [-16.1483, 28.5866], [-16.1484, 28.5865], [-16.1484, 28.5866]]], [[[-16.1259, 28.5473], [-16.126, 28.5474], [-16.1258, 28.5475], [-16.1259, 28.5473]]], [[[-16.1263, 28.5478], [-16.1262, 28.5477], [-16.1263, 28.5476], [-16.1263, 28.5478]]], [[[-16.1239, 28.5492], [-16.1238, 28.5492], [-16.1238, 28.5491], [-16.1239, 28.5492]]], [[[-16.1222, 28.5504], [-16.1223, 28.5506], [-16.1222, 28.5506], [-16.1222, 28.5504]]], [[[-16.1197, 28.5509], [-16.1196, 28.5508], [-16.1197, 28.5508], [-16.1197, 28.5509]]], [[[-16.1204, 28.5512], [-16.1201, 28.5511], [-16.1202, 28.551], [-16.1204, 28.5512]]], [[[-16.1196, 28.5514], [-16.1194, 28.5515], [-16.1195, 28.5513], [-16.1196, 28.5514]]], [[[-16.1218, 28.56], [-16.1216, 28.56], [-16.1216, 28.5599], [-16.1218, 28.56]]], [[[-16.1231, 28.5604], [-16.1227, 28.5604], [-16.1228, 28.5603], [-16.1231, 28.5604]]], [[[-16.1238, 28.5609], [-16.1237, 28.5609], [-16.1238, 28.5608], [-16.1238, 28.5609]]], [[[-16.1228, 28.5609], [-16.1228, 28.5608], [-16.123, 28.5608], [-16.1228, 28.5609]]], [[[-16.1245, 28.5621], [-16.1243, 28.562], [-16.1246, 28.562], [-16.1245, 28.5621]]], [[[-16.1236, 28.5622], [-16.1239, 28.5623], [-16.1237, 28.5623], [-16.1236, 28.5622]]], [[[-16.1257, 28.5664], [-16.1256, 28.5663], [-16.1257, 28.5663], [-16.1257, 28.5664]]], [[[-16.1253, 28.5675], [-16.1252, 28.5675], [-16.1253, 28.5674], [-16.1253, 28.5675]]], [[[-16.1255, 28.5679], [-16.1254, 28.5678], [-16.1255, 28.5678], [-16.1255, 28.5679]]], [[[-16.1262, 28.569], [-16.1261, 28.5689], [-16.1262, 28.5688], [-16.1262, 28.569]]], [[[-16.1266, 28.5713], [-16.1266, 28.5712], [-16.1268, 28.5713], [-16.1266, 28.5713]]], [[[-16.1266, 28.5713], [-16.1267, 28.5715], [-16.1265, 28.5714], [-16.1266, 28.5713]]]]}}, {"id": "38039", "type": "Feature", "properties": {}, "geometry": {"type": "MultiPolygon", "coordinates": [[[[-16.4971, 28.4386], [-16.4892, 28.4399], [-16.4797, 28.4265], [-16.4617, 28.4194], [-16.4427, 28.3907], [-16.4662, 28.3731], [-16.4763, 28.3881], [-16.5087, 28.4106], [-16.4971, 28.4386]]], [[[-16.4951, 28.4411], [-16.4953, 28.4412], [-16.4954, 28.4414], [-16.4951, 28.4411]]]]}}, {"id": "38040", "type": "Feature", "properties": {}, "geometry": {"type": "MultiPolygon", "coordinates": [[[[-16.8469, 28.2383], [-16.8468, 28.2388], [-16.8468, 28.2383], [-16.8469, 28.2383]]], [[[-16.846, 28.2389], [-16.8464, 28.2392], [-16.8428, 28.2406], [-16.8378, 28.2558], [-16.8521, 28.2739], [-16.8465, 28.2836], [-16.8216, 28.2929], [-16.8243, 28.3106], [-16.8033, 28.3149], [-16.7068, 28.2736], [-16.6773, 28.2689], [-16.7723, 28.2706], [-16.8092, 28.2557], [-16.8409, 28.2264], [-16.8428, 28.2372], [-16.8459, 28.2389], [-16.846, 28.2389]]], [[[-16.8433, 28.241], [-16.8436, 28.241], [-16.8434, 28.2412], [-16.8433, 28.241]]]]}}, {"id": "38041", "type": "Feature", "properties": {}, "geometry": {"type": "MultiPolygon", "coordinates": [[[[-16.4591, 28.4603], [-16.4591, 28.4606], [-16.4589, 28.4605], [-16.4591, 28.4603]]], [[[-16.4516, 28.4771], [-16.4516, 28.4774], [-16.4514, 28.4771], [-16.4516, 28.477], [-16.4516, 28.4771]]], [[[-16.4512, 28.4774], [-16.4481, 28.4743], [-16.445, 28.4746], [-16.4432, 28.4768], [-16.4445, 28.4804], [-16.4306, 28.4874], [-16.4187, 28.4776], [-16.3963, 28.43], [-16.4069, 28.4145], [-16.4296, 28.4487], [-16.4552, 28.4662], [-16.4512, 28.4774]]], [[[-16.4478, 28.4757], [-16.4476, 28.4757], [-16.4476, 28.4753], [-16.4478, 28.4757]]], [[[-16.4448, 28.4793], [-16.4448, 28.4791], [-16.4449, 28.4792], [-16.4448, 28.4793]]], [[[-16.4446, 28.4795], [-16.4445, 28.4794], [-16.4448, 28.4796], [-16.4446, 28.4795]]], [[[-16.4453, 28.4797], [-16.445, 28.4793], [-16.4453, 28.4794], [-16.4453, 28.4797]]]]}}, {"id": "38042", "type": "Feature", "properties": {}, "geometry": {"type": "MultiPolygon", "coordinates": [[[[-16.8091, 28.3764], [-16.7936, 28.3752], [-16.7934, 28.3526], [-16.8096, 28.3116], [-16.8237, 28.3156], [-16.8344, 28.3366], [-16.8303, 28.3923], [-16.8091, 28.3764]]], [[[-16.826, 28.3925], [-16.8257, 28.3927], [-16.8257, 28.3924], [-16.826, 28.3925]]]]}}, {"id": "38043", "type": "Feature", "properties": {}, "geometry": {"type": "MultiPolygon", "coordinates": [[[[-16.4272, 28.4991], [-16.4273, 28.4992], [-16.4272, 28.4993], [-16.4272, 28.4991]]], [[[-16.4292, 28.5002], [-16.4294, 28.5003], [-16.4294, 28.5004], [-16.4292, 28.5002]]], [[[-16.4252, 28.5041], [-16.4256, 28.5041], [-16.4254, 28.5044], [-16.4252, 28.5041]]], [[[-16.4237, 28.5061], [-16.4238, 28.5062], [-16.4237, 28.5062], [-16.4237, 28.5061]]], [[[-16.424, 28.5075], [-16.4241, 28.5076], [-16.4238, 28.5076], [-16.424, 28.5075]]], [[[-16.426, 28.4954], [-16.4258, 28.4994], [-16.4267, 28.4999], [-16.4243, 28.5003], [-16.4264, 28.5028], [-16.4231, 28.5047], [-16.4199, 28.5122], [-16.4216, 28.5177], [-16.4212, 28.5178], [-16.4192, 28.5184], [-16.4122, 28.524], [-16.411, 28.5272], [-16.4, 28.5096], [-16.3747, 28.4908], [-16.3725, 28.472], [-16.3964, 28.4303], [-16.4095, 28.4632], [-16.4299, 28.4878], [-16.426, 28.4954]]], [[[-16.4232, 28.5098], [-16.4231, 28.51], [-16.4225, 28.5098], [-16.4232, 28.5098]]], [[[-16.4215, 28.5118], [-16.4214, 28.5116], [-16.4216, 28.5116], [-16.4215, 28.5118]]], [[[-16.422, 28.5163], [-16.4219, 28.5164], [-16.4219, 28.5162], [-16.422, 28.5163]]], [[[-16.4218, 28.5165], [-16.4218, 28.5166], [-16.4217, 28.5166], [-16.4218, 28.5165]]], [[[-16.4222, 28.5173], [-16.4223, 28.5175], [-16.422, 28.5175], [-16.4222, 28.5173]]], [[[-16.4213, 28.5181], [-16.4212, 28.5178], [-16.4215, 28.5178], [-16.4213, 28.5181]]], [[[-16.422, 28.5179], [-16.4221, 28.5179], [-16.422, 28.5182], [-16.422, 28.5179]]], [[[-16.4203, 28.5188], [-16.4204, 28.5189], [-16.4203, 28.519], [-16.4203, 28.5188]]], [[[-16.4192, 28.5193], [-16.4192, 28.5194], [-16.4189, 28.5193], [-16.4192, 28.5193]]], [[[-16.4188, 28.5197], [-16.419, 28.5199], [-16.4188, 28.52], [-16.4188, 28.5197]]]]}}, {"id": "38044", "type": "Feature", "properties": {}, "geometry": {"type": "Polygon", "coordinates": [[[-16.809, 28.3216], [-16.7934, 28.3526], [-16.7957, 28.3657], [-16.7892, 28.3597], [-16.7671, 28.3686], [-16.7641, 28.3161], [-16.7437, 28.288], [-16.8073, 28.3135], [-16.809, 28.3216]]]}}, {"id": "38045", "type": "Feature", "properties": {}, "geometry": {"type": "MultiPolygon", "coordinates": [[[[-17.9267, 28.5971], [-17.9265, 28.5972], [-17.9265, 28.5971], [-17.9267, 28.5971]]], [[[-17.9244, 28.6018], [-17.9243, 28.6018], [-17.9243, 28.6017], [-17.9244, 28.6018]]], [[[-17.9248, 28.6027], [-17.9247, 28.6028], [-17.9247, 28.6027], [-17.9248, 28.6027]]], [[[-17.938, 28.6628], [-17.9347, 28.6568], [-17.9429, 28.6504], [-17.9241, 28.6476], [-17.9051, 28.593], [-17.9259, 28.5962], [-17.9263, 28.5997], [-17.9245, 28.6001], [-17.9242, 28.6021], [-17.9241, 28.6023], [-17.9291, 28.6115], [-17.926, 28.6158], [-17.95, 28.6525], [-17.938, 28.6628]]]]}}, {"id": "38046", "type": "Feature", "properties": {}, "geometry": {"type": "Polygon", "coordinates": [[[-16.3554, 28.4904], [-16.373, 28.5021], [-16.372, 28.5177], [-16.3511, 28.529], [-16.342, 28.5451], [-16.2932, 28.5346], [-16.3075, 28.5121], [-16.3291, 28.5083], [-16.3554, 28.4904]]]}}, {"id": "38047", "type": "Feature", "properties": {}, "geometry": {"type": "Polygon", "coordinates": [[[-17.9546, 28.7505], [-17.8983, 28.7374], [-17.9235, 28.6936], [-17.9224, 28.6759], [-17.95, 28.6525], [-17.9642, 28.6679], [-17.9736, 28.7101], [-17.9926, 28.7403], [-17.9546, 28.7505]]]}}, {"id": "38048", "type": "Feature", "properties": {}, "geometry": {"type": "MultiPolygon", "coordinates": [[[[-17.9588, 27.698], [-17.9587, 27.698], [-17.9587, 27.6978], [-17.9588, 27.698]]], [[[-17.9928, 27.7398], [-17.979, 27.7587], [-17.9878, 27.7729], [-17.9795, 27.804], [-17.9918, 27.8226], [-17.9748, 27.8261], [-17.9733, 27.8274], [-17.9675, 27.832], [-17.9655, 27.8356], [-17.9637, 27.8357], [-17.9632, 27.8394], [-17.946, 27.8403], [-17.9346, 27.8489], [-17.9301, 27.8471], [-17.9172, 27.8481], [-17.9168, 27.8453], [-17.9143, 27.8434], [-17.9129, 27.8446], [-17.9061, 27.841], [-17.9018, 27.8417], [-17.9038, 27.8406], [-17.9031, 27.8377], [-17.8939, 27.8323], [-17.8958, 27.8239], [-17.8835, 27.8133], [-17.8838, 27.8026], [-17.9143, 27.7706], [-17.9096, 27.7654], [-17.924, 27.7469], [-17.9272, 27.7319], [-17.9488, 27.7287], [-17.9573, 27.7197], [-17.9595, 27.7038], [-17.9588, 27.6925], [-17.9748, 27.7326], [-18.0042, 27.7255], [-18.0236, 27.7285], [-17.9928, 27.7398]]], [[[-17.9946, 27.8238], [-17.9947, 27.8235], [-17.9951, 27.8238], [-17.9946, 27.8238]]], [[[-17.9929, 27.8253], [-17.9929, 27.8247], [-17.9932, 27.8252], [-17.9929, 27.8253]]], [[[-17.9803, 27.8255], [-17.9802, 27.8254], [-17.9803, 27.8253], [-17.9803, 27.8255]]], [[[-17.981, 27.8257], [-17.981, 27.8258], [-17.9808, 27.8257], [-17.981, 27.8257]]], [[[-17.9732, 27.8276], [-17.9733, 27.8277], [-17.9731, 27.8277], [-17.9732, 27.8276]]], [[[-17.9639, 27.8395], [-17.964, 27.8394], [-17.9641, 27.8396], [-17.9639, 27.8395]]], [[[-17.9568, 27.8414], [-17.9568, 27.8415], [-17.9567, 27.8414], [-17.9568, 27.8414]]], [[[-17.9527, 27.8416], [-17.9529, 27.8416], [-17.9528, 27.8418], [-17.9527, 27.8416]]], [[[-17.9565, 27.8419], [-17.9564, 27.8418], [-17.9566, 27.8417], [-17.9565, 27.8419]]], [[[-17.9529, 27.8423], [-17.9527, 27.8422], [-17.9527, 27.8419], [-17.9529, 27.8423]]], [[[-17.9565, 27.8422], [-17.9564, 27.8421], [-17.9566, 27.8421], [-17.9565, 27.8422]]], [[[-17.9565, 27.8423], [-17.9567, 27.8423], [-17.9568, 27.8426], [-17.9565, 27.8423]]], [[[-17.9414, 27.7293], [-17.9414, 27.7295], [-17.9412, 27.7293], [-17.9414, 27.7293]]], [[[-17.9485, 27.841], [-17.9487, 27.8409], [-17.9488, 27.8411], [-17.9485, 27.841]]], [[[-17.9447, 27.8436], [-17.9445, 27.8436], [-17.9446, 27.8435], [-17.9447, 27.8436]]], [[[-17.9442, 27.8437], [-17.9443, 27.8438], [-17.9442, 27.8438], [-17.9442, 27.8437]]], [[[-17.9435, 27.8449], [-17.9437, 27.8454], [-17.9433, 27.8448], [-17.9435, 27.8449]]], [[[-17.9428, 27.8459], [-17.9427, 27.8458], [-17.943, 27.8458], [-17.9428, 27.8459]]], [[[-17.9163, 27.8462], [-17.9161, 27.8462], [-17.9163, 27.846], [-17.9163, 27.8462]]], [[[-17.9413, 27.8465], [-17.9415, 27.8464], [-17.9415, 27.8467], [-17.9413, 27.8465]]], [[[-17.9396, 27.8467], [-17.9397, 27.8468], [-17.9396, 27.8469], [-17.9396, 27.8467]]], [[[-17.931, 27.8478], [-17.9311, 27.8482], [-17.931, 27.848], [-17.931, 27.8478]]], [[[-17.9307, 27.8487], [-17.9307, 27.8485], [-17.9309, 27.8486], [-17.9307, 27.8487]]], [[[-17.9348, 27.8492], [-17.9349, 27.8491], [-17.935, 27.8492], [-17.9348, 27.8492]]], [[[-17.9284, 27.8497], [-17.9285, 27.8498], [-17.9283, 27.8498], [-17.9284, 27.8497]]], [[[-17.9097, 27.7729], [-17.9096, 27.773], [-17.9095, 27.7729], [-17.9097, 27.7729]]], [[[-17.893, 27.7916], [-17.8932, 27.7917], [-17.8929, 27.7918], [-17.893, 27.7916]]], [[[-17.8876, 27.819], [-17.8875, 27.819], [-17.8874, 27.8189], [-17.8876, 27.819]]], [[[-17.8922, 27.8258], [-17.8924, 27.8258], [-17.8921, 27.8259], [-17.8922, 27.8258]]], [[[-17.895, 27.8332], [-17.8952, 27.8332], [-17.8953, 27.8335], [-17.895, 27.8332]]], [[[-17.8995, 27.8369], [-17.8996, 27.837], [-17.8993, 27.8373], [-17.8995, 27.8369]]], [[[-17.903, 27.8389], [-17.9029, 27.839], [-17.9029, 27.8389], [-17.903, 27.8389]]], [[[-17.909, 27.8428], [-17.9089, 27.8428], [-17.909, 27.8427], [-17.909, 27.8428]]], [[[-17.9101, 27.844], [-17.91, 27.8441], [-17.91, 27.8439], [-17.9101, 27.844]]]]}}, {"id": "38049", "type": "Feature", "properties": {}, "geometry": {"type": "MultiPolygon", "coordinates": [[[[-17.3445, 28.1255], [-17.3444, 28.1254], [-17.3446, 28.1254], [-17.3445, 28.1255]]], [[[-17.3431, 28.1364], [-17.3432, 28.1364], [-17.3432, 28.1365], [-17.3431, 28.1364]]], [[[-17.3432, 28.1389], [-17.3435, 28.139], [-17.3432, 28.1391], [-17.3432, 28.1389]]], [[[-17.3461, 28.1444], [-17.3462, 28.1445], [-17.346, 28.1445], [-17.3461, 28.1444]]], [[[-17.3464, 28.1467], [-17.3467, 28.1467], [-17.3465, 28.1469], [-17.3464, 28.1467]]], [[[-17.3463, 28.152], [-17.3462, 28.1519], [-17.3463, 28.1518], [-17.3463, 28.152]]], [[[-17.33, 28.0806], [-17.33, 28.0805], [-17.3301, 28.0806], [-17.33, 28.0806]]], [[[-17.3402, 28.0883], [-17.3401, 28.0884], [-17.3402, 28.0881], [-17.3402, 28.0883]]], [[[-17.3192, 28.143], [-17.3065, 28.1516], [-17.2958, 28.1501], [-17.2794, 28.1334], [-17.2659, 28.1288], [-17.2849, 28.1262], [-17.2881, 28.1188], [-17.3201, 28.1004], [-17.3256, 28.084], [-17.3329, 28.0821], [-17.3308, 28.0779], [-17.349, 28.0989], [-17.3411, 28.1314], [-17.3427, 28.1403], [-17.3464, 28.1431], [-17.346, 28.1445], [-17.3441, 28.1497], [-17.3457, 28.152], [-17.3192, 28.143]]], [[[-17.3422, 28.1273], [-17.3423, 28.1273], [-17.3423, 28.1274], [-17.3422, 28.1273]]], [[[-17.3417, 28.1294], [-17.3418, 28.1294], [-17.3418, 28.1295], [-17.3417, 28.1294]]], [[[-17.3429, 28.1529], [-17.3431, 28.1529], [-17.343, 28.153], [-17.3429, 28.1529]]]]}}, {"id": "38050", "type": "Feature", "properties": {}, "geometry": {"type": "MultiPolygon", "coordinates": [[[[-17.3417, 28.1549], [-17.3421, 28.1549], [-17.342, 28.155], [-17.3417, 28.1549]]], [[[-17.3422, 28.1559], [-17.3425, 28.156], [-17.3421, 28.156], [-17.3422, 28.1559]]], [[[-17.3401, 28.1568], [-17.3403, 28.1567], [-17.3403, 28.1568], [-17.3401, 28.1568]]], [[[-17.337, 28.1619], [-17.3371, 28.1617], [-17.3372, 28.1617], [-17.337, 28.1619]]], [[[-17.336, 28.1712], [-17.3363, 28.1712], [-17.3362, 28.1713], [-17.336, 28.1712]]], [[[-17.3333, 28.178], [-17.3332, 28.1779], [-17.3333, 28.1779], [-17.3333, 28.178]]], [[[-17.3314, 28.1819], [-17.3315, 28.1819], [-17.3314, 28.182], [-17.3314, 28.1819]]], [[[-17.3318, 28.1825], [-17.3316, 28.1825], [-17.3317, 28.1824], [-17.3318, 28.1825]]], [[[-17.3308, 28.1835], [-17.3308, 28.1834], [-17.331, 28.1834], [-17.3308, 28.1835]]], [[[-17.3297, 28.1842], [-17.3297, 28.1845], [-17.3296, 28.1844], [-17.3297, 28.1842]]], [[[-17.3301, 28.1862], [-17.3298, 28.1861], [-17.3298, 28.186], [-17.3301, 28.1862]]], [[[-17.3301, 28.1869], [-17.3299, 28.187], [-17.3298, 28.1868], [-17.3301, 28.1869]]], [[[-17.3297, 28.1891], [-17.3296, 28.189], [-17.3298, 28.189], [-17.3297, 28.1891]]], [[[-17.3345, 28.163], [-17.336, 28.1714], [-17.3365, 28.1747], [-17.3343, 28.1755], [-17.3323, 28.178], [-17.3327, 28.1799], [-17.3287, 28.1846], [-17.3286, 28.1879], [-17.3249, 28.1884], [-17.3216, 28.1917], [-17.3229, 28.1978], [-17.3185, 28.2011], [-17.3186, 28.2036], [-17.2932, 28.2072], [-17.2818, 28.2112], [-17.2786, 28.2139], [-17.2786, 28.2169], [-17.2763, 28.2179], [-17.275, 28.2177], [-17.2753, 28.2158], [-17.2748, 28.2155], [-17.2732, 28.2143], [-17.2606, 28.2179], [-17.2605, 28.2134], [-17.2515, 28.2029], [-17.2438, 28.2007], [-17.2356, 28.2039], [-17.2293, 28.1892], [-17.2422, 28.172], [-17.2439, 28.1594], [-17.2531, 28.1529], [-17.2568, 28.1284], [-17.2435, 28.1152], [-17.2492, 28.0976], [-17.2957, 28.0475], [-17.3195, 28.0587], [-17.3204, 28.0757], [-17.3296, 28.0809], [-17.3201, 28.1004], [-17.2881, 28.1188], [-17.2849, 28.1262], [-17.2659, 28.1288], [-17.2794, 28.1334], [-17.2958, 28.1501], [-17.3065, 28.1516], [-17.3192, 28.143], [-17.342, 28.1543], [-17.3345, 28.163]]], [[[-17.3242, 28.1903], [-17.324, 28.1904], [-17.3239, 28.1903], [-17.3242, 28.1903]]], [[[-17.3232, 28.1912], [-17.3231, 28.1911], [-17.3232, 28.1911], [-17.3232, 28.1912]]], [[[-17.3221, 28.2], [-17.3219, 28.2], [-17.322, 28.1999], [-17.3221, 28.2]]], [[[-17.3213, 28.2001], [-17.3212, 28.2], [-17.3214, 28.2], [-17.3213, 28.2001]]], [[[-17.319, 28.2019], [-17.3189, 28.202], [-17.3188, 28.2018], [-17.319, 28.2019]]], [[[-17.298, 28.2076], [-17.2979, 28.2077], [-17.2978, 28.2075], [-17.298, 28.2076]]], [[[-17.2929, 28.2085], [-17.293, 28.2086], [-17.2929, 28.2086], [-17.2929, 28.2085]]], [[[-17.2928, 28.2088], [-17.2926, 28.2089], [-17.2927, 28.2087], [-17.2928, 28.2088]]], [[[-17.2924, 28.209], [-17.2924, 28.2089], [-17.2925, 28.209], [-17.2924, 28.209]]], [[[-17.2995, 28.2091], [-17.2995, 28.2093], [-17.2993, 28.209], [-17.2995, 28.2091]]], [[[-17.3005, 28.2096], [-17.3006, 28.21], [-17.2998, 28.2097], [-17.3005, 28.2096]]], [[[-17.291, 28.2101], [-17.2908, 28.2098], [-17.2911, 28.2098], [-17.291, 28.2101]]], [[[-17.2999, 28.2102], [-17.2994, 28.2101], [-17.2995, 28.21], [-17.2999, 28.2102]]], [[[-17.2898, 28.2103], [-17.2902, 28.2106], [-17.2901, 28.2106], [-17.2898, 28.2103]]], [[[-17.2849, 28.211], [-17.285, 28.2112], [-17.2848, 28.2113], [-17.2849, 28.211]]], [[[-17.2834, 28.2125], [-17.2832, 28.2125], [-17.2833, 28.2123], [-17.2834, 28.2125]]], [[[-17.2414, 28.2028], [-17.2416, 28.2026], [-17.2417, 28.203], [-17.2414, 28.2028]]], [[[-17.2379, 28.204], [-17.2378, 28.2038], [-17.2379, 28.2038], [-17.2379, 28.204]]], [[[-17.2478, 28.204], [-17.248, 28.2042], [-17.2477, 28.2042], [-17.2478, 28.204]]], [[[-17.2538, 28.2074], [-17.2538, 28.2075], [-17.2537, 28.2074], [-17.2537, 28.2073], [-17.2538, 28.2074]]], [[[-17.2532, 28.2101], [-17.253, 28.2101], [-17.2532, 28.21], [-17.2532, 28.2101]]], [[[-17.2578, 28.2121], [-17.2578, 28.2122], [-17.2574, 28.2122], [-17.2578, 28.2121]]], [[[-17.2577, 28.2124], [-17.2576, 28.2124], [-17.2577, 28.2123], [-17.2577, 28.2124]]], [[[-17.2578, 28.2127], [-17.2576, 28.2128], [-17.2577, 28.2126], [-17.2578, 28.2127]]], [[[-17.2588, 28.2134], [-17.2584, 28.2132], [-17.2587, 28.2131], [-17.2588, 28.2134]]], [[[-17.2598, 28.2143], [-17.2599, 28.2145], [-17.2596, 28.2145], [-17.2598, 28.2143]]], [[[-17.2748, 28.2155], [-17.2749, 28.2156], [-17.2745, 28.2157], [-17.2748, 28.2155]]], [[[-17.2719, 28.2163], [-17.2719, 28.2165], [-17.2718, 28.2165], [-17.2719, 28.2163]]], [[[-17.2673, 28.2173], [-17.2674, 28.2175], [-17.2671, 28.2175], [-17.2673, 28.2173]]], [[[-17.2719, 28.2174], [-17.2716, 28.2175], [-17.2716, 28.2174], [-17.2719, 28.2174]]], [[[-17.2716, 28.2185], [-17.2693, 28.2184], [-17.2706, 28.2176], [-17.2716, 28.2185]]]]}}, {"id": "38051", "type": "Feature", "properties": {}, "geometry": {"type": "MultiPolygon", "coordinates": [[[[-16.4768, 28.4407], [-16.4744, 28.4433], [-16.4236, 28.425], [-16.4168, 28.4157], [-16.4237, 28.3979], [-16.4427, 28.3907], [-16.4617, 28.4194], [-16.4797, 28.4265], [-16.4877, 28.4375], [-16.4768, 28.4407]]], [[[-16.4873, 28.4405], [-16.4864, 28.4395], [-16.4867, 28.4394], [-16.4873, 28.4405]]], [[[-16.4756, 28.4429], [-16.4756, 28.443], [-16.4754, 28.4428], [-16.4756, 28.4429]]]]}}, {"id": "38052", "type": "Feature", "properties": {}, "geometry": {"type": "Polygon", "coordinates": [[[-16.6874, 28.1391], [-16.6604, 28.2013], [-16.6375, 28.1999], [-16.6185, 28.2137], [-16.6112, 28.1718], [-16.6205, 28.1302], [-16.6413, 28.1162], [-16.6418, 28.1045], [-16.6846, 28.1206], [-16.6874, 28.1391]]]}}, {"id": "38053", "type": "Feature", "properties": {}, "geometry": {"type": "MultiPolygon", "coordinates": [[[[-17.7799, 28.5477], [-17.7796, 28.5476], [-17.7798, 28.5473], [-17.7799, 28.5477]]], [[[-17.7805, 28.5475], [-17.7807, 28.5475], [-17.7807, 28.5477], [-17.7805, 28.5475]]], [[[-17.7788, 28.6322], [-17.7536, 28.6306], [-17.7498, 28.6244], [-17.7568, 28.6118], [-17.7601, 28.5699], [-17.7867, 28.5436], [-17.7968, 28.5183], [-17.8403, 28.5366], [-17.834, 28.5614], [-17.8405, 28.5964], [-17.7788, 28.6322]]]]}}, {"id": "38901", "type": "Feature", "properties": {}, "geometry": {"type": "MultiPolygon", "coordinates": [[[[-18.0225, 27.6683], [-18.0224, 27.6683], [-18.0224, 27.6682], [-18.0225, 27.6683]]], [[[-18.024, 27.6684], [-18.0241, 27.6685], [-18.0239, 27.6686], [-18.024, 27.6684]]], [[[-18.0289, 27.6738], [-18.0288, 27.6739], [-18.0287, 27.6737], [-18.0289, 27.6738]]], [[[-18.0344, 27.6824], [-18.0342, 27.6825], [-18.0342, 27.6824], [-18.0344, 27.6824]]], [[[-18.0343, 27.6829], [-18.0342, 27.6829], [-18.0344, 27.6828], [-18.0343, 27.6829]]], [[[-18.0042, 27.7255], [-17.9748, 27.7326], [-17.9607, 27.6926], [-17.9645, 27.6898], [-17.9723, 27.6721], [-17.9704, 27.6484], [-17.9756, 27.6414], [-17.9889, 27.6381], [-17.9984, 27.6466], [-18.0096, 27.6495], [-18.0105, 27.6519], [-18.0194, 27.6604], [-18.0206, 27.6672], [-18.025, 27.6708], [-18.0291, 27.672], [-18.0278, 27.673], [-18.0287, 27.6739], [-18.0278, 27.677], [-18.0287, 27.6786], [-18.0378, 27.6862], [-18.0504, 27.6927], [-18.1247, 27.7052], [-18.1459, 27.7038], [-18.1505, 27.708], [-18.1574, 27.7113], [-18.0686, 27.7255], [-18.0042, 27.7255]]], [[[-18.0436, 27.6882], [-18.0437, 27.6883], [-18.0436, 27.6883], [-18.0436, 27.6882]]], [[[-18.0486, 27.6907], [-18.0487, 27.6908], [-18.0485, 27.6908], [-18.0486, 27.6907]]], [[[-18.002, 27.6471], [-18.002, 27.6472], [-18.0019, 27.6472], [-18.002, 27.6471]]], [[[-18.0046, 27.6477], [-18.0043, 27.6478], [-18.0045, 27.6476], [-18.0046, 27.6477]]], [[[-18.0046, 27.6477], [-18.005, 27.6476], [-18.0046, 27.648], [-18.0045, 27.6478], [-18.0046, 27.6477]]], [[[-18.0105, 27.6514], [-18.0104, 27.6514], [-18.0105, 27.6513], [-18.0105, 27.6514]]], [[[-17.971, 27.6692], [-17.971, 27.6693], [-17.9708, 27.6692], [-17.971, 27.6692]]], [[[-17.9713, 27.6694], [-17.9712, 27.6695], [-17.9711, 27.6692], [-17.9713, 27.6694]]], [[[-17.9668, 27.6787], [-17.9668, 27.6786], [-17.967, 27.6788], [-17.9668, 27.6787]]]]}}, {"id": "38008", "type": "Feature", "properties": {}, "geometry": {"type": "Polygon", "coordinates": [[[-17.8246, 28.6411], [-17.8336, 28.688], [-17.7961, 28.6758], [-17.7798, 28.6866], [-17.7695, 28.6853], [-17.7733, 28.6761], [-17.7685, 28.6758], [-17.7662, 28.6644], [-17.7778, 28.6481], [-17.8115, 28.6208], [-17.8345, 28.6146], [-17.8246, 28.6411]]]}}, {"id": "38009", "type": "Feature", "properties": {}, "geometry": {"type": "MultiPolygon", "coordinates": [[[[-17.834, 28.6157], [-17.8115, 28.6208], [-17.7662, 28.6644], [-17.7615, 28.6624], [-17.762, 28.655], [-17.7536, 28.6306], [-17.7788, 28.6322], [-17.8396, 28.5985], [-17.834, 28.6157]]], [[[-17.758, 28.6529], [-17.7581, 28.6526], [-17.7583, 28.6527], [-17.758, 28.6529]]], [[[-17.7592, 28.6539], [-17.759, 28.6535], [-17.7596, 28.6536], [-17.7592, 28.6539]]], [[[-17.7598, 28.6582], [-17.7599, 28.6581], [-17.7599, 28.6584], [-17.7598, 28.6582]]]]}}, {"id": "38010", "type": "Feature", "properties": {}, "geometry": {"type": "MultiPolygon", "coordinates": [[[[-16.8594, 28.2749], [-16.8614, 28.2875], [-16.8804, 28.3034], [-16.8807, 28.3131], [-16.8925, 28.3207], [-16.8966, 28.3322], [-16.926, 28.342], [-16.9207, 28.3429], [-16.9238, 28.3532], [-16.918, 28.3589], [-16.9173, 28.36], [-16.9174, 28.3603], [-16.9175, 28.3604], [-16.9178, 28.3606], [-16.9178, 28.3609], [-16.8868, 28.365], [-16.8602, 28.3756], [-16.8489, 28.388], [-16.8417, 28.3871], [-16.8324, 28.393], [-16.8344, 28.3366], [-16.8188, 28.3145], [-16.827, 28.3065], [-16.8212, 28.2941], [-16.8465, 28.2836], [-16.8531, 28.2731], [-16.8594, 28.2749]]], [[[-16.9208, 28.3568], [-16.9207, 28.357], [-16.9206, 28.3569], [-16.9208, 28.3568]]], [[[-16.9206, 28.3569], [-16.9206, 28.357], [-16.9205, 28.3569], [-16.9206, 28.3569]]], [[[-16.9176, 28.3603], [-16.9177, 28.3603], [-16.9175, 28.3604], [-16.9176, 28.3603]]], [[[-16.9054, 28.3644], [-16.9052, 28.3643], [-16.9054, 28.3642], [-16.9054, 28.3644]]], [[[-16.8803, 28.3689], [-16.8805, 28.3688], [-16.8804, 28.3693], [-16.8803, 28.3689]]], [[[-16.8839, 28.37], [-16.8838, 28.3698], [-16.8839, 28.3698], [-16.8839, 28.37]]], [[[-16.8598, 28.3793], [-16.86, 28.3794], [-16.8598, 28.3796], [-16.8598, 28.3793]]], [[[-16.8571, 28.3804], [-16.857, 28.3803], [-16.8572, 28.3803], [-16.8571, 28.3804]]], [[[-16.8574, 28.3806], [-16.8575, 28.3805], [-16.8576, 28.3807], [-16.8574, 28.3806]]], [[[-16.8558, 28.3815], [-16.8557, 28.3811], [-16.8559, 28.3812], [-16.8558, 28.3815]]], [[[-16.8533, 28.3848], [-16.8536, 28.3846], [-16.8534, 28.3851], [-16.8533, 28.3848]]], [[[-16.8474, 28.3886], [-16.8474, 28.3884], [-16.8477, 28.3887], [-16.8474, 28.3886]]]]}}, {"id": "38011", "type": "Feature", "properties": {}, "geometry": {"type": "Polygon", "coordinates": [[[-16.425, 28.3964], [-16.4216, 28.4086], [-16.4026, 28.4149], [-16.3794, 28.4138], [-16.3374, 28.3963], [-16.3611, 28.3786], [-16.3703, 28.3389], [-16.3847, 28.3394], [-16.4065, 28.3509], [-16.4466, 28.383], [-16.4455, 28.3906], [-16.425, 28.3964]]]}}, {"id": "38012", "type": "Feature", "properties": {}, "geometry": {"type": "MultiPolygon", "coordinates": [[[[-16.413, 28.2179], [-16.4133, 28.2175], [-16.4137, 28.2178], [-16.413, 28.2179]]], [[[-16.5164, 28.3041], [-16.5037, 28.2849], [-16.4624, 28.2686], [-16.4458, 28.2511], [-16.4072, 28.2342], [-16.4247, 28.2046], [-16.4221, 28.1936], [-16.5341, 28.2881], [-16.5164, 28.3041]]]]}}, {"id": "38013", "type": "Feature", "properties": {}, "geometry": {"type": "MultiPolygon", "coordinates": [[[[-18.1599, 27.7145], [-18.16, 27.7146], [-18.1598, 27.7148], [-18.1599, 27.7145]]], [[[-18.16, 27.7149], [-18.1603, 27.7151], [-18.1601, 27.7151], [-18.16, 27.7149]]], [[[-18.1612, 27.7188], [-18.1611, 27.719], [-18.1609, 27.7189], [-18.1612, 27.7188]]], [[[-18.1582, 27.7294], [-18.1582, 27.7297], [-18.158, 27.7295], [-18.1582, 27.7294]]], [[[-18.1556, 27.7566], [-18.1555, 27.7565], [-18.1557, 27.7565], [-18.1556, 27.7566]]], [[[-18.1538, 27.7567], [-18.154, 27.7567], [-18.154, 27.7568], [-18.1538, 27.7567]]], [[[-18.153, 27.7574], [-18.1528, 27.7573], [-18.1534, 27.7573], [-18.1535, 27.7575], [-18.153, 27.7574]]], [[[-18.1527, 27.758], [-18.1526, 27.7576], [-18.1527, 27.7576], [-18.1527, 27.758]]], [[[-18.1512, 27.7586], [-18.1516, 27.7585], [-18.1517, 27.7586], [-18.1512, 27.7586]]], [[[-18.1488, 27.7602], [-18.149, 27.7603], [-18.1488, 27.7605], [-18.1488, 27.7602]]], [[[-18.1427, 27.7632], [-18.1429, 27.7635], [-18.142, 27.7627], [-18.1427, 27.7632]]], [[[-18.14, 27.7641], [-18.1399, 27.7639], [-18.1401, 27.7639], [-18.14, 27.7641]]], [[[-18.1395, 27.7669], [-18.1397, 27.7672], [-18.1392, 27.7668], [-18.1395, 27.7669]]], [[[-18.1381, 27.767], [-18.1381, 27.7669], [-18.1384, 27.7671], [-18.1381, 27.767]]], [[[-18.1329, 27.7708], [-18.1328, 27.7708], [-18.1328, 27.7707], [-18.1329, 27.7708]]], [[[-18.1275, 27.7707], [-18.1276, 27.7707], [-18.1276, 27.7709], [-18.1275, 27.7707]]], [[[-18.075, 27.7533], [-18.075, 27.7535], [-18.0749, 27.7535], [-18.075, 27.7533]]], [[[-18.0728, 27.7535], [-18.0729, 27.7532], [-18.0731, 27.7537], [-18.0728, 27.7535]]], [[[-18.0663, 27.7548], [-18.0665, 27.7549], [-18.0664, 27.755], [-18.0663, 27.7548]]], [[[-18.0963, 27.7558], [-18.0963, 27.7556], [-18.0964, 27.7557], [-18.0963, 27.7558]]], [[[-18.0974, 27.7561], [-18.0974, 27.7563], [-18.0972, 27.7562], [-18.0974, 27.7561]]], [[[-18.0546, 27.7588], [-18.0548, 27.759], [-18.0547, 27.7591], [-18.0546, 27.7588]]], [[[-18.0483, 27.7602], [-18.0483, 27.7601], [-18.0484, 27.7601], [-18.0483, 27.7602]]], [[[-18.0498, 27.7603], [-18.0501, 27.7604], [-18.0501, 27.7605], [-18.0498, 27.7603]]], [[[-18.0491, 27.7605], [-18.049, 27.7605], [-18.0491, 27.7603], [-18.0491, 27.7605]]], [[[-18.0484, 27.7611], [-18.0484, 27.7609], [-18.0487, 27.7612], [-18.0484, 27.7611]]], [[[-18.0493, 27.7615], [-18.0493, 27.7612], [-18.0496, 27.7615], [-18.0493, 27.7615]]], [[[-18.1199, 27.7641], [-18.1199, 27.764], [-18.12, 27.764], [-18.1199, 27.7641]]], [[[-18.1207, 27.7649], [-18.1208, 27.7649], [-18.1206, 27.7651], [-18.1207, 27.7649]]], [[[-18.1603, 27.7256], [-18.1518, 27.7322], [-18.155, 27.7537], [-18.1505, 27.7584], [-18.1516, 27.7606], [-18.1471, 27.7595], [-18.1413, 27.7623], [-18.1399, 27.7639], [-18.1396, 27.7643], [-18.1405, 27.766], [-18.1365, 27.7665], [-18.1322, 27.7703], [-18.1324, 27.7712], [-18.1243, 27.769], [-18.1229, 27.7686], [-18.1216, 27.7693], [-18.1212, 27.7649], [-18.1188, 27.7621], [-18.1058, 27.7566], [-18.0823, 27.7531], [-18.0724, 27.7529], [-18.0644, 27.7546], [-18.0364, 27.7621], [-17.9933, 27.7944], [-17.9891, 27.7997], [-17.9863, 27.8076], [-17.9866, 27.8102], [-17.9895, 27.8179], [-17.9921, 27.822], [-17.9807, 27.8089], [-17.9789, 27.7937], [-17.9878, 27.7729], [-17.979, 27.7587], [-17.9929, 27.7398], [-18.0151, 27.7281], [-18.0452, 27.7294], [-18.1575, 27.7121], [-18.1603, 27.7256]]], [[[-18.1243, 27.769], [-18.1243, 27.7692], [-18.1242, 27.7692], [-18.1243, 27.769]]], [[[-18.1215, 27.7697], [-18.1216, 27.7697], [-18.1214, 27.7699], [-18.1215, 27.7697]]], [[[-18.1263, 27.7705], [-18.1262, 27.7705], [-18.1263, 27.7703], [-18.1263, 27.7705]]], [[[-18.0269, 27.7707], [-18.0268, 27.7703], [-18.0273, 27.7707], [-18.0269, 27.7707]]], [[[-18.0168, 27.7785], [-18.0169, 27.7786], [-18.0168, 27.7787], [-18.0168, 27.7785]]], [[[-18.0155, 27.782], [-18.0154, 27.7822], [-18.0153, 27.7821], [-18.0155, 27.782]]], [[[-18.0084, 27.787], [-18.0087, 27.7874], [-18.0085, 27.7873], [-18.0084, 27.787]]], [[[-17.997, 27.7929], [-17.997, 27.793], [-17.9966, 27.7927], [-17.997, 27.7929]]], [[[-17.9907, 27.7983], [-17.9908, 27.7984], [-17.9906, 27.7985], [-17.9907, 27.7983]]], [[[-17.991, 27.7991], [-17.9909, 27.7991], [-17.991, 27.799], [-17.991, 27.7991]]], [[[-17.9876, 27.8118], [-17.9875, 27.8118], [-17.9874, 27.8116], [-17.9876, 27.8118]]], [[[-17.9926, 27.8212], [-17.9926, 27.8214], [-17.9924, 27.8214], [-17.9926, 27.8212]]], [[[-17.9929, 27.8225], [-17.9921, 27.8225], [-17.9923, 27.8218], [-17.9929, 27.8225]]], [[[-17.9938, 27.8227], [-17.9937, 27.8227], [-17.9939, 27.8224], [-17.9938, 27.8227]]], [[[-17.9935, 27.8228], [-17.993, 27.8229], [-17.9932, 27.8223], [-17.9935, 27.8228]]], [[[-18.0012, 27.8229], [-18.0005, 27.8227], [-18.0007, 27.8223], [-18.0012, 27.8229]]], [[[-17.996, 27.8253], [-17.9951, 27.8236], [-17.9964, 27.823], [-17.996, 27.8253]]]]}}, {"id": "38014", "type": "Feature", "properties": {}, "geometry": {"type": "MultiPolygon", "coordinates": [[[[-17.8766, 28.502], [-17.8764, 28.502], [-17.8766, 28.5019], [-17.8766, 28.502]]], [[[-17.8768, 28.5068], [-17.8769, 28.5066], [-17.877, 28.5067], [-17.8768, 28.5068]]], [[[-17.8766, 28.5105], [-17.8767, 28.5106], [-17.8764, 28.5106], [-17.8766, 28.5105]]], [[[-17.8787, 28.5162], [-17.8787, 28.5163], [-17.8785, 28.5163], [-17.8787, 28.5162]]], [[[-17.8769, 28.5167], [-17.8768, 28.5166], [-17.8769, 28.5166], [-17.8769, 28.5167]]], [[[-17.8786, 28.5165], [-17.8787, 28.5166], [-17.8784, 28.5168], [-17.8786, 28.5165]]], [[[-17.8765, 28.5168], [-17.8765, 28.5167], [-17.8767, 28.5168], [-17.8765, 28.5168]]], [[[-17.8784, 28.5175], [-17.8783, 28.5176], [-17.8783, 28.5172], [-17.8784, 28.5175]]], [[[-17.8775, 28.5175], [-17.8771, 28.5176], [-17.8772, 28.5174], [-17.8775, 28.5175]]], [[[-17.8774, 28.5183], [-17.8776, 28.5183], [-17.8774, 28.5184], [-17.8774, 28.5183]]], [[[-17.879, 28.522], [-17.8791, 28.5219], [-17.8792, 28.522], [-17.879, 28.522]]], [[[-17.8802, 28.5245], [-17.8803, 28.5251], [-17.88, 28.5251], [-17.8802, 28.5245]]], [[[-17.8805, 28.5338], [-17.8804, 28.5337], [-17.8806, 28.5336], [-17.8805, 28.5338]]], [[[-17.8496, 28.457], [-17.8495, 28.457], [-17.8495, 28.4568], [-17.8496, 28.457]]], [[[-17.8577, 28.4621], [-17.8576, 28.4621], [-17.8576, 28.462], [-17.8577, 28.4621]]], [[[-17.8594, 28.4645], [-17.8593, 28.4646], [-17.8593, 28.4643], [-17.8594, 28.4645]]], [[[-17.8626, 28.4657], [-17.8626, 28.4658], [-17.8623, 28.4657], [-17.8626, 28.4657]]], [[[-17.8304, 28.4662], [-17.8303, 28.4661], [-17.8306, 28.466], [-17.8304, 28.4662]]], [[[-17.8622, 28.4661], [-17.862, 28.4664], [-17.862, 28.4661], [-17.8622, 28.4661]]], [[[-17.869, 28.4744], [-17.8688, 28.4743], [-17.8692, 28.4741], [-17.869, 28.4744]]], [[[-17.8679, 28.4773], [-17.8678, 28.4772], [-17.868, 28.4771], [-17.8679, 28.4773]]], [[[-17.8687, 28.4787], [-17.8687, 28.4786], [-17.8688, 28.4786], [-17.8687, 28.4787]]], [[[-17.8697, 28.4822], [-17.8696, 28.4819], [-17.87, 28.4821], [-17.8697, 28.4822]]], [[[-17.8747, 28.4912], [-17.8748, 28.4913], [-17.8745, 28.4912], [-17.8747, 28.4912]]], [[[-17.8762, 28.494], [-17.8759, 28.4941], [-17.8759, 28.494], [-17.8762, 28.494]]], [[[-17.8389, 28.5553], [-17.834, 28.5614], [-17.8403, 28.5366], [-17.7969, 28.5183], [-17.8004, 28.5181], [-17.8171, 28.4946], [-17.8315, 28.4656], [-17.8326, 28.4578], [-17.8401, 28.4529], [-17.8444, 28.456], [-17.8569, 28.46], [-17.8578, 28.4614], [-17.8574, 28.4616], [-17.8577, 28.4632], [-17.8583, 28.464], [-17.8686, 28.4734], [-17.8682, 28.4738], [-17.868, 28.4739], [-17.8686, 28.4766], [-17.8677, 28.4772], [-17.8696, 28.4806], [-17.8707, 28.4811], [-17.8685, 28.4824], [-17.8681, 28.484], [-17.8762, 28.4949], [-17.8752, 28.5216], [-17.8876, 28.5515], [-17.8389, 28.5553]]], [[[-17.8259, 28.4722], [-17.826, 28.4723], [-17.8255, 28.4722], [-17.8259, 28.4722]]], [[[-17.8228, 28.4791], [-17.8229, 28.4792], [-17.8227, 28.4791], [-17.8228, 28.4791]]], [[[-17.8219, 28.4812], [-17.8224, 28.4813], [-17.8218, 28.4814], [-17.8219, 28.4812]]], [[[-17.8212, 28.4838], [-17.8211, 28.4838], [-17.8211, 28.4837], [-17.8212, 28.4838]]], [[[-17.8182, 28.4894], [-17.8183, 28.4895], [-17.8179, 28.4897], [-17.8182, 28.4894]]], [[[-17.8159, 28.4956], [-17.8158, 28.4955], [-17.8159, 28.4954], [-17.8159, 28.4956]]], [[[-17.8077, 28.5032], [-17.8075, 28.5033], [-17.8075, 28.5032], [-17.8077, 28.5032]]], [[[-17.8052, 28.5087], [-17.8053, 28.5087], [-17.8051, 28.5089], [-17.8052, 28.5087]]], [[[-17.8016, 28.5129], [-17.8019, 28.5127], [-17.8019, 28.5129], [-17.8016, 28.5129]]]]}}, {"id": "38015", "type": "Feature", "properties": {}, "geometry": {"type": "MultiPolygon", "coordinates": [[[[-16.7937, 28.3749], [-16.7516, 28.3707], [-16.7428, 28.3758], [-16.739, 28.3805], [-16.7384, 28.3543], [-16.7445, 28.3457], [-16.7333, 28.305], [-16.7007, 28.2714], [-16.7437, 28.288], [-16.7575, 28.3026], [-16.7681, 28.3325], [-16.7671, 28.3686], [-16.7892, 28.3597], [-16.7957, 28.3658], [-16.7937, 28.3749]]], [[[-16.7486, 28.3733], [-16.7486, 28.3735], [-16.7484, 28.3734], [-16.7486, 28.3733]]], [[[-16.7783, 28.3745], [-16.778, 28.3743], [-16.7781, 28.3742], [-16.7783, 28.3745]]], [[[-16.7818, 28.3756], [-16.7821, 28.3755], [-16.7821, 28.3758], [-16.7818, 28.3756]]], [[[-16.7633, 28.3797], [-16.7624, 28.3807], [-16.762, 28.3783], [-16.7633, 28.3797]]], [[[-16.7453, 28.376], [-16.7453, 28.3761], [-16.7452, 28.376], [-16.7453, 28.376]]], [[[-16.7435, 28.3765], [-16.7438, 28.3763], [-16.7439, 28.3766], [-16.7435, 28.3765]]], [[[-16.7436, 28.3769], [-16.7438, 28.3769], [-16.7437, 28.377], [-16.7436, 28.3769]]], [[[-16.7414, 28.3785], [-16.7414, 28.3787], [-16.7412, 28.3786], [-16.7414, 28.3785]]], [[[-16.741, 28.3802], [-16.7409, 28.3802], [-16.741, 28.3801], [-16.741, 28.3802]]]]}}, {"id": "38016", "type": "Feature", "properties": {}, "geometry": {"type": "MultiPolygon", "coordinates": [[[[-17.989, 28.7966], [-17.9889, 28.7966], [-17.9888, 28.7964], [-17.989, 28.7966]]], [[[-17.9889, 28.7966], [-17.9889, 28.7967], [-17.9887, 28.7965], [-17.9889, 28.7966]]], [[[-17.972, 28.8167], [-17.9722, 28.8168], [-17.972, 28.8168], [-17.972, 28.8167]]], [[[-17.9717, 28.8169], [-17.9717, 28.8174], [-17.9713, 28.8171], [-17.9717, 28.8169]]], [[[-17.972, 28.8172], [-17.972, 28.8171], [-17.9721, 28.8171], [-17.972, 28.8172]]], [[[-17.9713, 28.8187], [-17.9714, 28.8188], [-17.9711, 28.819], [-17.9713, 28.8187]]], [[[-17.9681, 28.8218], [-17.9681, 28.8216], [-17.9683, 28.8216], [-17.9681, 28.8218]]], [[[-17.9682, 28.8283], [-17.9692, 28.8291], [-17.9687, 28.8295], [-17.9682, 28.8283]]], [[[-17.9622, 28.8294], [-17.9626, 28.8303], [-17.9615, 28.8296], [-17.961, 28.8298], [-17.9611, 28.8288], [-17.9622, 28.8294]]], [[[-17.9615, 28.8299], [-17.9615, 28.8298], [-17.9617, 28.8298], [-17.9615, 28.8299]]], [[[-17.9581, 28.831], [-17.9588, 28.832], [-17.958, 28.8314], [-17.9581, 28.831]]], [[[-17.9452, 28.8425], [-17.9446, 28.8425], [-17.9448, 28.8421], [-17.9452, 28.8425]]], [[[-17.9869, 28.7988], [-17.9847, 28.7985], [-17.9848, 28.7994], [-17.9835, 28.7995], [-17.9816, 28.8008], [-17.9784, 28.8046], [-17.9771, 28.8082], [-17.9793, 28.8124], [-17.9704, 28.8158], [-17.9666, 28.8225], [-17.9678, 28.8272], [-17.9627, 28.8266], [-17.9541, 28.8315], [-17.9462, 28.8425], [-17.9427, 28.8409], [-17.9413, 28.8426], [-17.9386, 28.8411], [-17.9265, 28.8463], [-17.9199, 28.8574], [-17.9066, 28.8556], [-17.9045, 28.8476], [-17.8902, 28.8401], [-17.8855, 28.8435], [-17.8806, 28.838], [-17.8574, 28.8327], [-17.8474, 28.8342], [-17.847, 28.8171], [-17.8616, 28.7858], [-17.8581, 28.7668], [-17.8635, 28.7607], [-17.8759, 28.7624], [-17.8902, 28.7504], [-17.9006, 28.7553], [-17.9175, 28.7516], [-17.9362, 28.7663], [-17.9572, 28.7697], [-17.9869, 28.7988]]], [[[-17.8537, 28.8337], [-17.8535, 28.8338], [-17.8535, 28.8335], [-17.8537, 28.8337]]], [[[-17.8538, 28.8345], [-17.853, 28.8341], [-17.8532, 28.8338], [-17.8538, 28.8345]]], [[[-17.8613, 28.8353], [-17.8614, 28.8355], [-17.8613, 28.8355], [-17.8613, 28.8353]]], [[[-17.8499, 28.8356], [-17.85, 28.8355], [-17.8501, 28.8358], [-17.8499, 28.8356]]], [[[-17.8752, 28.8372], [-17.8751, 28.8374], [-17.875, 28.8373], [-17.8752, 28.8372]]], [[[-17.8768, 28.8383], [-17.8767, 28.8383], [-17.8767, 28.8382], [-17.8768, 28.8383]]], [[[-17.8773, 28.8385], [-17.8775, 28.8385], [-17.8774, 28.8386], [-17.8773, 28.8385]]], [[[-17.8788, 28.8387], [-17.8788, 28.8383], [-17.879, 28.8385], [-17.8788, 28.8387]]], [[[-17.8974, 28.8443], [-17.8972, 28.8443], [-17.8973, 28.8441], [-17.8974, 28.8443]]], [[[-17.9318, 28.8444], [-17.9318, 28.8445], [-17.9316, 28.8444], [-17.9318, 28.8444]]], [[[-17.9315, 28.8445], [-17.9315, 28.8446], [-17.9313, 28.8445], [-17.9315, 28.8445]]], [[[-17.9347, 28.8454], [-17.9344, 28.8448], [-17.9348, 28.8452], [-17.9347, 28.8454]]], [[[-17.9286, 28.8467], [-17.9286, 28.8464], [-17.929, 28.847], [-17.9286, 28.8467]]], [[[-17.921, 28.8576], [-17.9207, 28.8574], [-17.9211, 28.8571], [-17.921, 28.8576]]]]}}, {"id": "38017", "type": "Feature", "properties": {}, "geometry": {"type": "MultiPolygon", "coordinates": [[[[-16.5396, 28.0337], [-16.5396, 28.0338], [-16.5395, 28.0338], [-16.5396, 28.0337]]], [[[-16.5412, 28.0353], [-16.5413, 28.0355], [-16.5411, 28.0356], [-16.5412, 28.0353]]], [[[-16.4907, 28.0877], [-16.4905, 28.0878], [-16.4905, 28.0877], [-16.4907, 28.0877]]], [[[-16.6112, 28.1718], [-16.6185, 28.2137], [-16.5999, 28.2182], [-16.5896, 28.2043], [-16.5771, 28.2002], [-16.5557, 28.169], [-16.5354, 28.1559], [-16.52, 28.1309], [-16.5045, 28.1262], [-16.4874, 28.1054], [-16.4818, 28.0954], [-16.4884, 28.0916], [-16.49, 28.0902], [-16.4911, 28.0876], [-16.4864, 28.0773], [-16.4971, 28.0782], [-16.4945, 28.0697], [-16.5031, 28.077], [-16.5226, 28.0528], [-16.5412, 28.0421], [-16.5431, 28.0366], [-16.5397, 28.033], [-16.5466, 28.0249], [-16.5573, 28.0313], [-16.5956, 28.0292], [-16.5969, 28.0275], [-16.6069, 28.0458], [-16.6007, 28.1004], [-16.6201, 28.1348], [-16.6112, 28.1718]]], [[[-16.4874, 28.0915], [-16.4872, 28.0915], [-16.4872, 28.0914], [-16.4874, 28.0915]]], [[[-16.4865, 28.0924], [-16.4864, 28.0925], [-16.4864, 28.0924], [-16.4865, 28.0924]]]]}}, {"id": "38018", "type": "Feature", "properties": {}, "geometry": {"type": "MultiPolygon", "coordinates": [[[[-16.6765, 28.3931], [-16.6742, 28.402], [-16.652, 28.3959], [-16.6553, 28.3886], [-16.6485, 28.3721], [-16.6081, 28.3069], [-16.6409, 28.2998], [-16.6328, 28.3067], [-16.6333, 28.3151], [-16.6839, 28.3912], [-16.6765, 28.3931]]], [[[-16.6777, 28.3983], [-16.6778, 28.3985], [-16.6777, 28.3985], [-16.6777, 28.3983]]]]}}, {"id": "38019", "type": "Feature", "properties": {}, "geometry": {"type": "MultiPolygon", "coordinates": [[[[-16.8275, 28.1954], [-16.828, 28.1953], [-16.8279, 28.1954], [-16.8275, 28.1954]]], [[[-16.8289, 28.1975], [-16.829, 28.1971], [-16.8292, 28.1974], [-16.8289, 28.1975]]], [[[-16.8291, 28.2], [-16.8299, 28.1997], [-16.8299, 28.2], [-16.8291, 28.2]]], [[[-16.8092, 28.2557], [-16.7723, 28.2706], [-16.6773, 28.2689], [-16.6873, 28.2543], [-16.6826, 28.2095], [-16.7203, 28.1788], [-16.747, 28.1677], [-16.8035, 28.1567], [-16.8069, 28.1745], [-16.8196, 28.1807], [-16.828, 28.1998], [-16.8375, 28.2076], [-16.8386, 28.2284], [-16.8092, 28.2557]]]]}}, {"id": "38020", "type": "Feature", "properties": {}, "geometry": {"type": "MultiPolygon", "coordinates": [[[[-16.3959, 28.2523], [-16.3959, 28.2521], [-16.3961, 28.2522], [-16.396, 28.2522], [-16.3959, 28.2523]]], [[[-16.4841, 28.335], [-16.3625, 28.3303], [-16.3593, 28.3196], [-16.3617, 28.3044], [-16.3755, 28.2921], [-16.3836, 28.2849], [-16.3873, 28.2645], [-16.3947, 28.2581], [-16.4072, 28.2342], [-16.4458, 28.2511], [-16.4624, 28.2686], [-16.5037, 28.2849], [-16.5122, 28.3002], [-16.4841, 28.335]]], [[[-16.3778, 28.2888], [-16.3777, 28.2888], [-16.3781, 28.2883], [-16.3778, 28.2888]]], [[[-16.3772, 28.2896], [-16.3766, 28.2905], [-16.3766, 28.2903], [-16.3772, 28.2896]]], [[[-16.3755, 28.2921], [-16.3753, 28.2921], [-16.3758, 28.2913], [-16.3755, 28.2921]]]]}}, {"id": "38021", "type": "Feature", "properties": {}, "geometry": {"type": "MultiPolygon", "coordinates": [[[[-17.2348, 28.1433], [-17.1918, 28.1822], [-17.1764, 28.1774], [-17.1678, 28.1808], [-17.1651, 28.1719], [-17.1556, 28.1734], [-17.1557, 28.1666], [-17.1459, 28.1614], [-17.1386, 28.1605], [-17.152, 28.1474], [-17.1692, 28.1482], [-17.1956, 28.127], [-17.2166, 28.1217], [-17.2207, 28.1081], [-17.2382, 28.1063], [-17.2443, 28.1114], [-17.2348, 28.1433]]], [[[-17.143, 28.1623], [-17.1429, 28.162], [-17.1431, 28.162], [-17.143, 28.1623]]], [[[-17.1433, 28.1624], [-17.1431, 28.1628], [-17.143, 28.1626], [-17.1433, 28.1624]]], [[[-17.1476, 28.1632], [-17.1478, 28.1631], [-17.1478, 28.1632], [-17.1476, 28.1632]]], [[[-17.1509, 28.1666], [-17.1512, 28.1665], [-17.1512, 28.1666], [-17.1509, 28.1666]]], [[[-17.1644, 28.1787], [-17.1643, 28.1786], [-17.1647, 28.1785], [-17.1644, 28.1787]]], [[[-17.1716, 28.1795], [-17.1719, 28.1795], [-17.1715, 28.1797], [-17.1716, 28.1795]]]]}}, {"id": "38022", "type": "Feature", "properties": {}, "geometry": {"type": "MultiPolygon", "coordinates": [[[[-16.7307, 28.3781], [-16.7304, 28.3783], [-16.7305, 28.378], [-16.7307, 28.3781]]], [[[-16.7261, 28.38], [-16.7261, 28.3803], [-16.726, 28.3801], [-16.7261, 28.38]]], [[[-16.7238, 28.3837], [-16.7239, 28.384], [-16.7238, 28.384], [-16.7238, 28.3837]]], [[[-16.7237, 28.3842], [-16.7238, 28.3843], [-16.7235, 28.3843], [-16.7237, 28.3842]]], [[[-16.7257, 28.3765], [-16.7193, 28.3877], [-16.7131, 28.3838], [-16.7013, 28.3836], [-16.694, 28.3959], [-16.684, 28.3913], [-16.6636, 28.3663], [-16.6537, 28.3428], [-16.6437, 28.3362], [-16.6328, 28.3067], [-16.6693, 28.2927], [-16.6773, 28.2689], [-16.7007, 28.2714], [-16.7333, 28.305], [-16.7445, 28.3457], [-16.7384, 28.3543], [-16.7388, 28.3802], [-16.7257, 28.3765]]], [[[-16.7136, 28.385], [-16.7135, 28.3852], [-16.7133, 28.3849], [-16.7136, 28.385]]], [[[-16.713, 28.385], [-16.7131, 28.3851], [-16.7131, 28.3853], [-16.713, 28.385]]], [[[-16.7194, 28.3878], [-16.7197, 28.3879], [-16.7195, 28.3881], [-16.7194, 28.3878]]], [[[-16.6938, 28.3963], [-16.6938, 28.3964], [-16.6936, 28.3963], [-16.6938, 28.3963]]], [[[-16.6952, 28.3966], [-16.695, 28.3965], [-16.6952, 28.3964], [-16.6952, 28.3966]]]]}}, {"id": "38023", "type": "Feature", "properties": {}, "geometry": {"type": "MultiPolygon", "coordinates": [[[[-16.3877, 28.5442], [-16.3877, 28.544], [-16.3878, 28.544], [-16.3877, 28.5442]]], [[[-16.3843, 28.5461], [-16.3844, 28.5462], [-16.3843, 28.5462], [-16.3843, 28.5461]]], [[[-16.3644, 28.5477], [-16.3644, 28.5476], [-16.3646, 28.5477], [-16.3644, 28.5477]]], [[[-16.3774, 28.5479], [-16.3775, 28.5481], [-16.3774, 28.5481], [-16.3774, 28.5479]]], [[[-16.3617, 28.5493], [-16.3617, 28.549], [-16.362, 28.5492], [-16.3617, 28.5493]]], [[[-16.3586, 28.5492], [-16.3588, 28.5493], [-16.3586, 28.5494], [-16.3586, 28.5492]]], [[[-16.3571, 28.5498], [-16.3572, 28.5497], [-16.3574, 28.5499], [-16.3571, 28.5498]]], [[[-16.3534, 28.5531], [-16.3534, 28.5533], [-16.3533, 28.5533], [-16.3534, 28.5531]]], [[[-16.3985, 28.5336], [-16.3977, 28.5385], [-16.3957, 28.5381], [-16.3954, 28.5401], [-16.3842, 28.5452], [-16.3832, 28.5471], [-16.3807, 28.5468], [-16.3655, 28.5451], [-16.3339, 28.5575], [-16.3315, 28.5654], [-16.3336, 28.5709], [-16.3231, 28.5788], [-16.3187, 28.5779], [-16.3174, 28.5737], [-16.3163, 28.5714], [-16.3156, 28.571], [-16.3107, 28.5714], [-16.3071, 28.5745], [-16.3054, 28.5726], [-16.3051, 28.5727], [-16.3053, 28.5726], [-16.3037, 28.5707], [-16.2977, 28.569], [-16.2907, 28.5701], [-16.285, 28.5765], [-16.2781, 28.5713], [-16.2747, 28.5722], [-16.2671, 28.5436], [-16.2791, 28.5328], [-16.2865, 28.514], [-16.2703, 28.4985], [-16.2821, 28.4659], [-16.2899, 28.4602], [-16.2942, 28.432], [-16.301, 28.4458], [-16.3264, 28.4501], [-16.3444, 28.4632], [-16.3684, 28.4692], [-16.383, 28.4509], [-16.3725, 28.472], [-16.3747, 28.4908], [-16.4, 28.5096], [-16.4104, 28.527], [-16.3985, 28.5336]], [[-16.3075, 28.5121], [-16.2932, 28.5346], [-16.342, 28.5451], [-16.3511, 28.529], [-16.372, 28.5177], [-16.373, 28.502], [-16.3554, 28.4904], [-16.326, 28.5105], [-16.3075, 28.5121]]], [[[-16.3466, 28.5551], [-16.3464, 28.5551], [-16.3465, 28.5549], [-16.3466, 28.5551]]], [[[-16.3339, 28.5705], [-16.334, 28.5707], [-16.3337, 28.5707], [-16.3339, 28.5705]]], [[[-16.3161, 28.573], [-16.3162, 28.5728], [-16.3164, 28.573], [-16.3161, 28.573]]], [[[-16.332, 28.5744], [-16.3321, 28.5742], [-16.3322, 28.5743], [-16.332, 28.5744]]], [[[-16.3162, 28.5745], [-16.3164, 28.5744], [-16.3164, 28.5745], [-16.3162, 28.5745]]], [[[-16.3302, 28.5765], [-16.3301, 28.5764], [-16.3302, 28.5764], [-16.3302, 28.5765]]], [[[-16.3298, 28.5766], [-16.3296, 28.5767], [-16.3296, 28.5766], [-16.3298, 28.5766]]], [[[-16.3021, 28.5712], [-16.3023, 28.5713], [-16.3021, 28.5715], [-16.3021, 28.5712]]], [[[-16.2934, 28.5717], [-16.2933, 28.5717], [-16.2933, 28.5716], [-16.2934, 28.5717]]], [[[-16.2941, 28.5718], [-16.2941, 28.5717], [-16.2942, 28.572], [-16.2941, 28.5718]]], [[[-16.3108, 28.572], [-16.3107, 28.572], [-16.3107, 28.5719], [-16.3108, 28.572]]], [[[-16.2927, 28.5724], [-16.293, 28.5724], [-16.2929, 28.5726], [-16.2927, 28.5724]]], [[[-16.2756, 28.5726], [-16.2756, 28.5725], [-16.2759, 28.5724], [-16.2756, 28.5726]]], [[[-16.3162, 28.5726], [-16.3162, 28.5728], [-16.316, 28.5728], [-16.3162, 28.5726]]], [[[-16.3097, 28.5728], [-16.31, 28.573], [-16.3098, 28.573], [-16.3097, 28.5728]]], [[[-16.2764, 28.5729], [-16.2768, 28.5733], [-16.276, 28.5733], [-16.2764, 28.5729]]], [[[-16.309, 28.5733], [-16.309, 28.5734], [-16.3089, 28.5734], [-16.309, 28.5733]]], [[[-16.2808, 28.5736], [-16.2809, 28.5737], [-16.2807, 28.5738], [-16.2808, 28.5736]]], [[[-16.3086, 28.5738], [-16.3087, 28.5739], [-16.3085, 28.574], [-16.3086, 28.5738]]], [[[-16.3162, 28.5741], [-16.316, 28.5741], [-16.316, 28.574], [-16.3162, 28.5741]]], [[[-16.2869, 28.5751], [-16.2868, 28.5752], [-16.2866, 28.5751], [-16.2869, 28.5751]]]]}}, {"id": "38024", "type": "Feature", "properties": {}, "geometry": {"type": "Polygon", "coordinates": [[[-17.9309, 28.6727], [-17.9244, 28.6752], [-17.9282, 28.6723], [-17.9234, 28.6671], [-17.9112, 28.673], [-17.8904, 28.6609], [-17.9052, 28.6546], [-17.8858, 28.6277], [-17.8746, 28.5547], [-17.8889, 28.5514], [-17.9188, 28.5921], [-17.9051, 28.593], [-17.9137, 28.6288], [-17.9233, 28.6372], [-17.9241, 28.6476], [-17.9429, 28.6504], [-17.9347, 28.6568], [-17.938, 28.6628], [-17.9309, 28.6727]]]}}, {"id": "38025", "type": "Feature", "properties": {}, "geometry": {"type": "MultiPolygon", "coordinates": [[[[-16.4734, 28.455], [-16.4522, 28.4648], [-16.4294, 28.4485], [-16.4088, 28.4143], [-16.4192, 28.4092], [-16.4168, 28.4159], [-16.4236, 28.425], [-16.4744, 28.4433], [-16.4734, 28.455]]], [[[-16.475, 28.4441], [-16.4751, 28.444], [-16.4754, 28.4442], [-16.475, 28.4441]]]]}}, {"id": "38026", "type": "Feature", "properties": {}, "geometry": {"type": "MultiPolygon", "coordinates": [[[[-16.6873, 28.2543], [-16.6746, 28.2711], [-16.6693, 28.2927], [-16.5923, 28.3147], [-16.589, 28.2929], [-16.5653, 28.2981], [-16.5579, 28.3104], [-16.5551, 28.3449], [-16.5614, 28.3858], [-16.5544, 28.3976], [-16.538, 28.3971], [-16.5331, 28.4053], [-16.52, 28.4079], [-16.5219, 28.4183], [-16.5219, 28.4186], [-16.5213, 28.4178], [-16.5206, 28.4176], [-16.5119, 28.4196], [-16.5031, 28.4246], [-16.5087, 28.4106], [-16.4635, 28.3721], [-16.4668, 28.3556], [-16.482, 28.3475], [-16.4852, 28.3299], [-16.4991, 28.3097], [-16.5122, 28.3002], [-16.5211, 28.3033], [-16.5456, 28.2824], [-16.5525, 28.2507], [-16.5935, 28.2201], [-16.6185, 28.2137], [-16.6219, 28.2069], [-16.6432, 28.1984], [-16.6767, 28.2094], [-16.6873, 28.2543]]], [[[-16.522, 28.4183], [-16.522, 28.4184], [-16.5219, 28.4183], [-16.522, 28.4183]]], [[[-16.5221, 28.4186], [-16.5224, 28.4187], [-16.522, 28.4187], [-16.522, 28.4186], [-16.522, 28.4185], [-16.5221, 28.4185], [-16.5221, 28.4186]]], [[[-16.5139, 28.4194], [-16.5139, 28.4193], [-16.514, 28.4194], [-16.5139, 28.4194]]], [[[-16.5188, 28.4205], [-16.5189, 28.4204], [-16.5189, 28.4205], [-16.5188, 28.4205]]]]}}]}